Name,Division,City,State,Website,Phone,NCAA_ID,Data_Quality
"Abilene Christian University","NCAA D1","","TX","https://www.acu.edu","","2",70
"Adams State University","NCAA D1","","CO","https://www.adams.edu","","929",70
"Adelphi University","NCAA D1","","NY","https://www.adelphi.edu","","3",70
"Adrian College","NCAA D1","","MI","https://www.adrian.edu","","4",70
"Agnes Scott College","NCAA D1","","GA","https://www.agnesscott.edu","","11324",70
"Alabama A&M University","NCAA D1","","AL","https://www.aamu.edu","","6",70
"Alabama State University","NCAA D1","","AL","https://www.alasu.edu","","7",70
"Albany State University (Georgia)","NCAA D1","","GA","https://www.asurams.edu","","13",70
"Albertus Magnus College","NCAA D1","","CT","https://www.albertus.edu","","2798",70
"Albion College","NCAA D1","","MI","https://www.albion.edu","","15",70
"Albright College","NCAA D1","","PA","https://www.albright.edu","","16",70
"Alcorn State University","NCAA D1","","MS","https://www.alcorn.edu","","17",70
"Alfred State College","NCAA D1","","NY","https://www.alfredstate.edu","","30170",70
"Alfred University","NCAA D1","","NY","https://www.alfred.edu","","18",70
"Allegheny College","NCAA D1","","PA","https://www.allegheny.edu","","19",70
"Allen University","NCAA D1","","SC","https://allenuniversity.edu","","30240",70
"Alma College","NCAA D1","","MI","https://www.alma.edu","","21",70
"Alvernia University","NCAA D1","","PA","https://www.alvernia.edu","","938",70
"Alverno College","NCAA D1","","WI","https://www.alverno.edu","","28746",70
"American International College","NCAA D1","","MA","https://aic.edu","","22",70
"American University","NCAA D1","","DC","https://american.edu","","23",70
"Amherst College","NCAA D1","","MA","https://www.amherst.edu","","24",70
"Anderson University (Indiana)","NCAA D1","","IN","https://www.anderson.edu","","939",70
"Anderson University (South Carolina)","NCAA D1","","SC","https://www.andersonuniversity.edu","","13028",70
"Angelo State University","NCAA D1","","TX","https://www.angelo.edu","","25",70
"Anna Maria College","NCAA D1","","MA","https://www.annamaria.edu","","26",70
"Appalachian State University","NCAA D1","","NC","https://www.appstate.edu","","27",70
"Arcadia University","NCAA D1","","PA","https://www.arcadia.edu","","966",70
"Arizona State University","NCAA D1","","AZ","https://asu.edu","","28",70
"Arkansas State University","NCAA D1","","AR","https://www.astate.edu","","30",70
"Arkansas Tech University","NCAA D1","","AR","https://www.atu.edu","","947",70
"Asbury University","NCAA D1","","KY","https://www.asbury.edu","","30243",70
"Ashland University","NCAA D1","","OH","https://www.ashland.edu","","35",70
"Assumption University","NCAA D1","","MA","https://www.assumption.edu","","36",70
"Auburn University","NCAA D1","","AL","https://www.auburn.edu","","37",70
"Auburn University at Montgomery","NCAA D1","","AL","https://www.aum.edu","","30093",70
"Augsburg University","NCAA D1","","MN","https://www.augsburg.edu","","38",70
"Augusta University","NCAA D1","","GA","https://www.augusta.edu","","39",70
"Augustana College (Illinois)","NCAA D1","","IL","https://www.augustana.edu","","40",70
"Augustana University (South Dakota)","NCAA D1","","SD","https://www.augie.edu","","41",70
"Aurora University","NCAA D1","","IL","https://www.aurora.edu","","42",70
"Austin College","NCAA D1","","TX","https://www.austincollege.edu","","953",70
"Austin Peay State University","NCAA D1","","TN","https://www.apsu.edu","","43",70
"Averett University","NCAA D1","","VA","https://www.averett.edu","","44",70
"Azusa Pacific University","NCAA D1","","CA","https://www.apu.edu","","30146",70
"Babson College","NCAA D1","","MA","https://www.babson.edu","","45",70
"Baldwin Wallace University","NCAA D1","","OH","https://www.bw.edu","","46",70
"Ball State University","NCAA D1","","IN","https://www.bsu.edu","","47",70
"Bard College","NCAA D1","","NY","https://www.bard.edu","","962",70
"Barry University","NCAA D1","","FL","https://www.barry.edu","","49",70
"Barton College","NCAA D1","","NC","https://www.barton.edu","","15646",70
"Baruch College","NCAA D1","","NY","https://www.baruch.cuny.edu","","58",70
"Bates College","NCAA D1","","ME","https://www.bates.edu","","50",70
"Baylor University","NCAA D1","","TX","https://www.baylor.edu","","51",70
"Belhaven University","NCAA D1","","MS","https://www.belhaven.edu","","30197",70
"Bellarmine University","NCAA D1","","KY","https://www.bellarmine.edu","","52",70
"Belmont Abbey College","NCAA D1","","NC","https://www.bac.edu","","2683",70
"Belmont University","NCAA D1","","TN","https://www.belmont.edu","","14927",70
"Beloit College","NCAA D1","","WI","https://www.beloit.edu","","53",70
"Bemidji State University","NCAA D1","","MN","https://www.bemidjistate.edu/","","54",70
"Benedict College","NCAA D1","","SC","https://www.benedict.edu","","55",70
"Benedictine University (Illinois)","NCAA D1","","IL","https://www.ben.edu","","296",70
"Bentley University","NCAA D1","","MA","https://www.bentley.edu","","56",70
"Berea College","NCAA D1","","KY","https://www.berea.edu","","30171",70
"Berry College","NCAA D1","","GA","https://www.berry.edu","","973",70
"Bethany College (West Virginia)","NCAA D1","","WV","https://www.bethanywv.edu","","59",70
"Bethany Lutheran College","NCAA D1","","MN","https://www.blc.edu","","30038",70
"Bethel University (Minnesota)","NCAA D1","","MN","https://www.bethel.edu","","60",70
"Bethune-Cookman University","NCAA D1","","FL","https://www.cookman.edu","","61",70
"Binghamton University","NCAA D1","","NY","https://www.binghamton.edu","","62",70
"Biola University","NCAA D1","","CA","https://www.biola.edu","","30220",70
"Black Hills State University","NCAA D1","","SD","https://www.bhsu.edu","","30134",70
"Blackburn College","NCAA D1","","IL","https://www.blackburn.edu","","64",70
"Bloomsburg University of Pennsylvania","NCAA D1","","PA","https://www.commonwealthu.edu","","65",70
"Bluefield State University","NCAA D1","","WV","https://bluefieldstate.edu","","985",70
"Bluffton University","NCAA D1","","OH","https://www.bluffton.edu","","987",70
"Boise State University","NCAA D1","","ID","https://www.boisestate.edu","","66",70
"Boston College","NCAA D1","","MA","https://www.bc.edu","","67",70
"Boston University","NCAA D1","","MA","https://www.bu.edu","","68",70
"Bowdoin College","NCAA D1","","ME","https://www.bowdoin.edu","","69",70
"Bowie State University","NCAA D1","","MD","https://www.bowiestate.edu","","70",70
"Bowling Green State University","NCAA D1","","OH","https://www.bgsu.edu","","71",70
"Bradley University","NCAA D1","","IL","https://www.bradley.edu","","72",70
"Brandeis University","NCAA D1","","MA","https://www.brandeis.edu","","73",70
"Brevard College","NCAA D1","","NC","https://www.brevard.edu","","30094",70
"Bridgewater College (Virginia)","NCAA D1","","VA","https://www.bridgewater.edu","","75",70
"Bridgewater State University","NCAA D1","","MA","https://www.bridgew.edu","","76",70
"Brigham Young University","NCAA D1","","UT","https://www.byu.edu","","77",70
"Brooklyn College","NCAA D1","","NY","https://www.brooklyn.cuny.edu","","79",70
"Brown University","NCAA D1","","RI","https://www.brown.edu","","80",70
"Bryant University","NCAA D1","","RI","https://www.bryant.edu","","81",70
"Bryn Mawr College","NCAA D1","","PA","https://www.brynmawr.edu","","82",70
"Bucknell University","NCAA D1","","PA","https://bucknell.edu","","83",70
"Buena Vista University","NCAA D1","","IA","https://www.bvu.edu","","84",70
"Buffalo State, State University of New York","NCAA D1","","NY","https://www.buffalostate.edu","","85",70
"Butler University","NCAA D1","","IN","https://www.butler.edu","","87",70
"Cairn University","NCAA D1","","PA","https://www.cairn.edu","","1305",70
"Caldwell University","NCAA D1","","NJ","https://www.caldwell.edu/","","995",70
"California Baptist University","NCAA D1","","CA","https://www.calbaptist.edu","","30135",70
"California Institute of Technology","NCAA D1","","CA","https://www.caltech.edu","","89",70
"California Lutheran University","NCAA D1","","CA","https://www.callutheran.edu","","105",70
"California Polytechnic State University","NCAA D1","","CA","https://calpoly.edu","","90",70
"California State Polytechnic University, Humboldt","NCAA D1","","CA","https://www.humboldt.edu","","291",70
"California State Polytechnic University, Pomona","NCAA D1","","CA","https://www.cpp.edu","","91",70
"California State University, Bakersfield","NCAA D1","","CA","https://www.csub.edu","","94",70
"California State University, Chico","NCAA D1","","CA","https://www.csuchico.edu","","95",70
"California State University, Dominguez Hills","NCAA D1","","CA","https://www.csudh.edu","","92",70
"California State University, East Bay","NCAA D1","","CA","https://www.csueastbay.edu","","98",70
"California State University, Fresno","NCAA D1","","CA","https://www.fresnostate.edu","","96",70
"California State University, Fullerton","NCAA D1","","CA","https://www.fullerton.edu","","97",70
"California State University, Los Angeles","NCAA D1","","CA","https://www.calstatela.edu","","100",70
"California State University, Monterey Bay","NCAA D1","","CA","https://www.csumb.edu","","30055",70
"California State University, Northridge","NCAA D1","","CA","https://www.csun.edu","","101",70
"California State University, Sacramento","NCAA D1","","CA","https://www.csus.edu","","102",70
"California State University, San Bernardino","NCAA D1","","CA","https://www.csusb.edu","","93",70
"California State University, San Marcos","NCAA D1","","CA","https://www.csusm.edu","","30198",70
"California State University, Stanislaus","NCAA D1","","CA","https://www.csustan.edu","","103",70
"Calvin University","NCAA D1","","MI","https://www.calvin.edu","","114",70
"Cameron University","NCAA D1","","OK","https://www.cameron.edu","","996",70
"Campbell University","NCAA D1","","NC","https://www.campbell.edu","","115",70
"Canisius University","NCAA D1","","NY","https://www.canisius.edu","","116",70
"Capital University","NCAA D1","","OH","https://www.capital.edu","","117",70
"Carleton College","NCAA D1","","MN","https://www.carleton.edu","","118",70
"Carnegie Mellon University","NCAA D1","","PA","https://www.cmu.edu/","","119",70
"Carroll University (Wisconsin)","NCAA D1","","WI","https://www.carrollu.edu","","120",70
"Carson-Newman University","NCAA D1","","TN","https://www.cn.edu","","1000",70
"Carthage College","NCAA D1","","WI","https://www.carthage.edu","","121",70
"Case Western Reserve University","NCAA D1","","OH","https://www.case.edu","","122",70
"Catawba College","NCAA D1","","NC","https://www.catawba.edu","","1001",70
"Catholic University","NCAA D1","","DC","https://www.catholic.edu","","124",70
"Cedar Crest College","NCAA D1","","PA","https://www.cedarcrest.edu","","14795",70
"Cedarville University","NCAA D1","","OH","https://www.cedarville.edu","","30124",70
"Centenary College (Louisiana)","NCAA D1","","LA","https://www.centenary.edu","","125",70
"Centenary University (New Jersey)","NCAA D1","","NJ","https://www.centenaryuniversity.edu","","12884",70
"Central College (Iowa)","NCAA D1","","IA","https://www.central.edu","","126",70
"Central Connecticut State University","NCAA D1","","CT","https://www.ccsu.edu","","127",70
"Central Michigan University","NCAA D1","","MI","https://www.cmich.edu","","129",70
"Central State University","NCAA D1","","OH","https://www.centralstate.edu","","30049",70
"Central Washington University","NCAA D1","","WA","https://cwu.edu","","1010",70
"Centre College","NCAA D1","","KY","https://www.centre.edu","","132",70
"Chadron State College","NCAA D1","","NE","https://www.csc.edu","","1012",70
"Chaminade University","NCAA D1","","HI","https://www.chaminade.edu","","133",70
"Chapman University","NCAA D1","","CA","https://www.chapman.edu","","134",70
"Charleston Southern University","NCAA D1","","SC","https://www.charlestonsouthern.edu/","","48",70
"Chatham University","NCAA D1","","PA","https://www.chatham.edu","","10972",70
"Chestnut Hill College","NCAA D1","","PA","https://www.chc.edu","","21323",70
"Chicago State University","NCAA D1","","IL","https://www.csu.edu","","136",70
"Chowan University","NCAA D1","","NC","https://www.chowan.edu","","8875",70
"Christian Brothers University","NCAA D1","","TN","https://www.cbu.edu","","1015",70
"Christopher Newport University","NCAA D1","","VA","https://www.cnu.edu","","139",70
"Claflin University","NCAA D1","","SC","https://www.claflin.edu","","30058",70
"Claremont McKenna-Harvey Mudd-Scripps Colleges","NCAA D1","","CA","https://www.claremontmckenna.edu","","142",70
"Clark Atlanta University","NCAA D1","","GA","https://www.cau.edu","","144",70
"Clark University (Massachusetts)","NCAA D1","","MA","https://www.clarku.edu","","145",70
"Clarkson University","NCAA D1","","NY","https://www.clarkson.edu","","146",70
"Clayton State University","NCAA D1","","GA","https://www.clayton.edu","","20576",70
"Clemson University","NCAA D1","","SC","https://clemson.edu","","147",70
"Cleveland State University","NCAA D1","","OH","https://www.csuohio.edu","","148",70
"Coastal Carolina University","NCAA D1","","SC","https://www.coastal.edu","","149",70
"Coe College","NCAA D1","","IA","https://www.coe.edu","","150",70
"Coker University","NCAA D1","","SC","https://www.coker.edu","","1023",70
"Colby College","NCAA D1","","ME","https://www.colby.edu","","151",70
"Colby-Sawyer College","NCAA D1","","NH","https://www.colby-sawyer.edu","","152",70
"Colgate University","NCAA D1","","NY","https://www.colgate.edu","","153",70
"College of Charleston (South Carolina)","NCAA D1","","SC","https://www.cofc.edu","","1014",70
"College of Saint Benedict","NCAA D1","","MN","https://www.csbsju.edu","","595",70
"College of Staten Island","NCAA D1","","NY","https://www.csi.cuny.edu","","675",70
"College of the Holy Cross","NCAA D1","","MA","https://www.holycross.edu","","285",70
"Colorado Christian University","NCAA D1","","CO","https://www.ccu.edu","","11403",70
"Colorado College","NCAA D1","","CO","https://www.coloradocollege.edu/","","154",70
"Colorado Mesa University","NCAA D1","","CO","https://coloradomesa.edu","","11416",70
"Colorado School of Mines","NCAA D1","","CO","https://mines.edu","","155",70
"Colorado State University","NCAA D1","","CO","https://www.colostate.edu","","156",70
"Colorado State University Pueblo","NCAA D1","","CO","https://www.csupueblo.edu","","2720",70
"Columbia University-Barnard College","NCAA D1","","NY","https://www.columbia.edu","","158",70
"Columbus State University","NCAA D1","","GA","https://www.columbusstate.edu","","159",70
"Concord University","NCAA D1","","WV","https://www.concord.edu","","1028",70
"Concordia College, Moorhead","NCAA D1","","MN","https://www.concordiacollege.edu","","161",70
"Concordia University Chicago","NCAA D1","","IL","https://www.cuchicago.edu","","160",70
"Concordia University Irvine","NCAA D1","","CA","https://www.cui.edu","","30199",70
"Concordia University Texas","NCAA D1","","TX","https://www.concordia.edu/","","24400",70
"Concordia University Wisconsin","NCAA D1","","WI","https://www.cuw.edu","","1036",70
"Concordia University, St. Paul","NCAA D1","","MN","https://www.csp.edu","","9081",70
"Connecticut College","NCAA D1","","CT","https://www.conncoll.edu","","163",70
"Converse University","NCAA D1","","SC","https://www.converse.edu","","8935",70
"Coppin State University","NCAA D1","","MD","https://www.coppin.edu","","165",70
"Cornell College","NCAA D1","","IA","https://www.cornellcollege.edu","","166",70
"Cornell University","NCAA D1","","NY","https://www.cornell.edu","","167",70
"Covenant College","NCAA D1","","GA","https://www.covenant.edu","","30111",70
"Creighton University","NCAA D1","","NE","https://www.creighton.edu/node/165768","","169",70
"Crown College (Minnesota)","NCAA D1","","MN","https://www.crown.edu","","30035",70
"Curry College","NCAA D1","","MA","https://www.curry.edu","","170",70
"D'Youville University","NCAA D1","","NY","https://www.dyc.edu","","1059",70
"Daemen University","NCAA D1","","NY","https://www.daemen.edu","","30174",70
"Dallas Baptist University","NCAA D1","","TX","https://www.dbu.edu","","1045",70
"Dartmouth College","NCAA D1","","NH","https://www.dartmouth.edu","","172",70
"Davenport University","NCAA D1","","MI","https://www.davenport.edu/","","30221",70
"Davidson College","NCAA D1","","NC","https://www.davidson.edu","","173",70
"Davis & Elkins College","NCAA D1","","WV","https://www.dewv.edu","","174",70
"Dean College","NCAA D1","","MA","https://www.dean.edu/","","30219",70
"Delaware State University","NCAA D1","","DE","https://www.desu.edu","","178",70
"Delaware Valley University","NCAA D1","","PA","https://www.delval.edu","","179",70
"Delta State University","NCAA D1","","MS","https://www.deltastate.edu","","181",70
"Denison University","NCAA D1","","OH","https://www.denison.edu","","182",70
"DePaul University","NCAA D1","","IL","https://www.depaul.edu","","176",70
"DePauw University","NCAA D1","","IN","https://www.depauw.edu","","177",70
"DeSales University","NCAA D1","","PA","https://www.desales.edu","","20",70
"Dickinson College","NCAA D1","","PA","https://www.dickinson.edu","","185",70
"Dominican University (Illinois)","NCAA D1","","IL","https://www.dom.edu","","1332",70
"Dominican University New York","NCAA D1","","NY","https://www.duny.edu","","8956",70
"Dominican University of California","NCAA D1","","CA","https://www.dominican.edu","","30118",70
"Drake University","NCAA D1","","IA","https://www.drake.edu/","","189",70
"Drew University","NCAA D1","","NJ","https://www.drew.edu","","190",70
"Drexel University","NCAA D1","","PA","https://www.drexel.edu","","191",70
"Drury University","NCAA D1","","MO","https://www.drury.edu","","1057",70
"Duke University","NCAA D1","","NC","https://www.duke.edu","","193",70
"Duquesne University","NCAA D1","","PA","https://www.duq.edu","","194",70
"Earlham College","NCAA D1","","IN","https://www.earlham.edu","","195",70
"East Carolina University","NCAA D1","","NC","https://www.ecu.edu","","196",70
"East Central University","NCAA D1","","OK","https://www.ecok.edu","","8965",70
"East Stroudsburg University of Pennsylvania","NCAA D1","","PA","https://www.esu.edu","","197",70
"East Tennessee State University","NCAA D1","","TN","https://www.etsu.edu","","198",70
"East Texas A&M University","NCAA D1","","TX","https://www.etamu.edu","","199",70
"East Texas Baptist University","NCAA D1","","TX","https://www.etbu.edu","","1062",70
"Eastern Connecticut State University","NCAA D1","","CT","https://www.easternct.edu","","200",70
"Eastern Illinois University","NCAA D1","","IL","https://www.eiu.edu","","201",70
"Eastern Kentucky University","NCAA D1","","KY","https://www.eku.edu","","202",70
"Eastern Mennonite University","NCAA D1","","VA","https://www.emu.edu","","203",70
"Eastern Michigan University","NCAA D1","","MI","https://www.emich.edu","","204",70
"Eastern New Mexico University","NCAA D1","","NM","https://www.enmu.edu","","206",70
"Eastern University","NCAA D1","","PA","https://www.eastern.edu","","8968",70
"Eastern Washington University","NCAA D1","","WA","https://www.ewu.edu/","","207",70
"Eckerd College","NCAA D1","","FL","https://www.eckerd.edu/","","208",70
"Edgewood University","NCAA D1","","WI","https://www.edgewood.edu","","1066",70
"Edward Waters University","NCAA D1","","FL","https://www.ewu.edu","","30244",70
"Elizabeth City State University","NCAA D1","","NC","https://www.ecsu.edu","","210",70
"Elizabethtown College","NCAA D1","","PA","https://www.etown.edu","","211",70
"Elmhurst University","NCAA D1","","IL","https://public.elmhurst.edu/","","212",70
"Elmira College","NCAA D1","","NY","https://www.elmira.edu","","213",70
"Elms College","NCAA D1","","MA","https://www.elms.edu","","532",70
"Elon University","NCAA D1","","NC","https://www.elon.edu","","1068",70
"Embry-Riddle Aeronautical University (Florida)","NCAA D1","","FL","https://www.erau.edu","","9680",70
"Emerson College","NCAA D1","","MA","https://www.emerson.edu","","214",70
"Emmanuel College (Massachusetts)","NCAA D1","","MA","https://www.emmanuel.edu","","215",70
"Emmanuel University (Georgia)","NCAA D1","","GA","https://www.ec.edu","","30193",70
"Emory & Henry University","NCAA D1","","VA","https://www.emoryhenry.edu","","216",70
"Emory University","NCAA D1","","GA","https://www.emory.edu","","217",70
"Emporia State University","NCAA D1","","KS","https://www.emporia.edu","","1071",70
"Endicott College","NCAA D1","","MA","https://www.endicott.edu","","8981",70
"Erskine College","NCAA D1","","SC","https://www.erskine.edu","","1072",70
"Eureka College","NCAA D1","","IL","https://www.eureka.edu","","218",70
"Fairfield University","NCAA D1","","CT","https://fairfield.edu","","220",70
"Fairleigh Dickinson University, Florham","NCAA D1","","NJ","https://www.fdu.edu","","221",70
"Fairleigh Dickinson University, Metropolitan Campus","NCAA D1","","NJ","https://www.fdu.edu","","222",70
"Fairmont State University","NCAA D1","","WV","https://www.fairmontstate.edu","","1076",70
"Farmingdale State College","NCAA D1","","NY","https://www.farmingdale.edu","","27892",70
"Fayetteville State University","NCAA D1","","NC","https://www.uncfsu.edu","","223",70
"Felician University","NCAA D1","","NJ","https://www.felician.edu","","23157",70
"Ferris State University","NCAA D1","","MI","https://www.ferris.edu","","224",70
"Ferrum College","NCAA D1","","VA","https://www.ferrum.edu","","225",70
"Fitchburg State University","NCAA D1","","MA","https://www.fitchburgstate.edu","","227",70
"Flagler College","NCAA D1","","FL","https://www.flagler.edu","","30092",70
"Florida A&M University","NCAA D1","","FL","https://www.famu.edu","","228",70
"Florida Atlantic University","NCAA D1","","FL","https://www.fau.edu","","229",70
"Florida Gulf Coast University","NCAA D1","","FL","https://www.fgcu.edu/","","28755",70
"Florida Institute of Technology","NCAA D1","","FL","https://www.fit.edu/","","230",70
"Florida International University","NCAA D1","","FL","https://www.fiu.edu","","231",70
"Florida Southern College","NCAA D1","","FL","https://www.flsouthern.edu","","233",70
"Florida State University","NCAA D1","","FL","https://www.fsu.edu","","234",70
"Fordham University","NCAA D1","","NY","https://www.fordham.edu","","236",70
"Fort Hays State University","NCAA D1","","KS","https://www.fhsu.edu","","9011",70
"Fort Lewis College","NCAA D1","","CO","https://www.fortlewis.edu","","1083",70
"Fort Valley State University","NCAA D1","","GA","https://www.fvsu.edu","","237",70
"Framingham State University","NCAA D1","","MA","https://www.framingham.edu","","238",70
"Francis Marion University","NCAA D1","","SC","https://www.fmarion.edu","","1085",70
"Franciscan University of Steubenville","NCAA D1","","OH","https://www.franciscan.edu","","30069",70
"Franklin & Marshall College","NCAA D1","","PA","https://www.fandm.edu","","239",70
"Franklin College","NCAA D1","","IN","https://www.franklincollege.edu","","2694",70
"Franklin Pierce University","NCAA D1","","NH","https://www.franklinpierce.edu","","241",70
"Fresno Pacific University","NCAA D1","","CA","https://www.fresno.edu","","30147",70
"Frostburg State University","NCAA D1","","MD","https://www.frostburg.edu/","","243",70
"Furman University","NCAA D1","","SC","https://www.furman.edu","","244",70
"Gallaudet University","NCAA D1","","DC","https://www.gallaudet.edu","","245",70
"Gannon University","NCAA D1","","PA","https://www.gannon.edu","","246",70
"Gardner-Webb University","NCAA D1","","NC","https://gardner-webb.edu","","1092",70
"Geneva College","NCAA D1","","PA","https://www.geneva.edu","","30084",70
"George Fox University","NCAA D1","","OR","https://www.georgefox.edu","","1094",70
"George Mason University","NCAA D1","","VA","https://www.gmu.edu","","248",70
"George Washington University","NCAA D1","","DC","https://www.gwu.edu","","249",70
"Georgetown University","NCAA D1","","DC","https://georgetown.edu","","251",70
"Georgia College","NCAA D1","","GA","https://www.gcsu.edu","","1096",70
"Georgia Institute of Technology","NCAA D1","","GA","https://www.gatech.edu","","255",70
"Georgia Southern University","NCAA D1","","GA","https://georgiasouthern.edu","","253",70
"Georgia Southwestern State University","NCAA D1","","GA","https://www.gsw.edu","","1097",70
"Georgia State University","NCAA D1","","GA","https://gsu.edu","","254",70
"Georgian Court University","NCAA D1","","NJ","https://www.georgian.edu","","9004",70
"Gettysburg College","NCAA D1","","PA","https://www.gettysburg.edu","","258",70
"Glenville State University","NCAA D1","","WV","https://www.glenville.edu","","1098",70
"Goldey-Beacom College","NCAA D1","","DE","https://www.gbc.edu","","8366",70
"Gonzaga University","NCAA D1","","WA","https://www.gonzaga.edu","","260",70
"Gordon College","NCAA D1","","MA","https://www.gordon.edu","","1099",70
"Goucher College","NCAA D1","","MD","https://www.goucher.edu","","1467",70
"Grambling State University","NCAA D1","","LA","https://www.gram.edu","","261",70
"Grand Canyon University","NCAA D1","","AZ","https://www.gcu.edu/","","1104",70
"Grand Valley State University","NCAA D1","","MI","https://www.gvsu.edu","","262",70
"Greensboro College","NCAA D1","","NC","https://www.greensboro.edu","","263",70
"Greenville University","NCAA D1","","IL","https://www.greenville.edu","","1111",70
"Grinnell College","NCAA D1","","IA","https://www.grinnell.edu/","","264",70
"Grove City College","NCAA D1","","PA","https://www.gcc.edu","","265",70
"Guilford College","NCAA D1","","NC","https://www.guilford.edu","","1112",70
"Gustavus Adolphus College","NCAA D1","","MN","https://www.gustavus.edu","","266",70
"Gwynedd Mercy University","NCAA D1","","PA","https://www.gmercyu.edu","","12399",70
"Hamilton College","NCAA D1","","NY","https://www.hamilton.edu","","267",70
"Hamline University","NCAA D1","","MN","https://www.hamline.edu","","268",70
"Hampden-Sydney College","NCAA D1","","VA","https://www.hsc.edu/","","269",70
"Hampton University","NCAA D1","","VA","https://hamptonu.edu","","270",70
"Hanover College","NCAA D1","","IN","https://www.hanover.edu","","1115",70
"Hardin-Simmons University","NCAA D1","","TX","https://www.hsutx.edu","","271",70
"Harding University","NCAA D1","","AR","https://www.harding.edu","","1116",70
"Hartwick College","NCAA D1","","NY","https://www.hartwick.edu","","273",70
"Harvard University","NCAA D1","","MA","https://www.harvard.edu/","","275",70
"Haverford College","NCAA D1","","PA","https://www.haverford.edu","","276",70
"Hawaii Pacific University","NCAA D1","","HI","https://www.hpu.edu","","2696",70
"Heidelberg University","NCAA D1","","OH","https://www.heidelberg.edu","","278",70
"Henderson State University","NCAA D1","","AR","https://hsu.edu","","1123",70
"Hendrix College","NCAA D1","","AR","https://www.hendrix.edu","","1124",70
"High Point University","NCAA D1","","NC","https://www.highpoint.edu","","19651",70
"Hilbert College","NCAA D1","","NY","https://www.hilbert.edu","","8398",70
"Hillsdale College","NCAA D1","","MI","https://www.hillsdale.edu","","280",70
"Hiram College","NCAA D1","","OH","https://www.hiram.edu","","281",70
"Hobart and William Smith Colleges","NCAA D1","","NY","https://www.hws.edu","","282",70
"Hofstra University","NCAA D1","","NY","https://www.hofstra.edu","","283",70
"Hollins University","NCAA D1","","VA","https://www.hollins.edu","","284",70
"Holy Family University","NCAA D1","","PA","https://www.holyfamily.edu","","1126",70
"Hood College","NCAA D1","","MD","https://www.hood.edu","","8404",70
"Hope College","NCAA D1","","MI","https://www.hope.edu","","286",70
"Houghton University","NCAA D1","","NY","https://www.houghton.edu","","30160",70
"Houston Christian University","NCAA D1","","TX","https://www.hc.edu","","287",70
"Howard Payne University","NCAA D1","","TX","https://www.hputx.edu","","2741",70
"Howard University","NCAA D1","","DC","https://www.howard.edu","","290",70
"Hunter College","NCAA D1","","NY","https://www.hunter.cuny.edu/","","292",70
"Huntingdon College","NCAA D1","","AL","https://www.huntingdon.edu","","1130",70
"Husson University","NCAA D1","","ME","https://www.husson.edu","","1133",70
"Idaho State University","NCAA D1","","ID","https://www.isu.edu","","294",70
"Illinois College","NCAA D1","","IL","https://www.ic.edu","","297",70
"Illinois Institute of Technology","NCAA D1","","IL","https://www.iit.edu","","30172",70
"Illinois State University","NCAA D1","","IL","https://IllinoisState.edu","","299",70
"Illinois Wesleyan University","NCAA D1","","IL","https://www.iwu.edu/","","300",70
"Immaculata University","NCAA D1","","PA","https://www.immaculata.edu","","303",70
"Indiana State University","NCAA D1","","IN","https://www.indstate.edu","","305",70
"Indiana University Indianapolis","NCAA D1","","IN","https://indianapolis.iu.edu/","","2699",70
"Indiana University of Pennsylvania","NCAA D1","","PA","https://iup.edu","","307",70
"Indiana University, Bloomington","NCAA D1","","IN","https://www.iub.edu","","306",70
"Iona University","NCAA D1","","NY","https://www.iona.edu","","310",70
"Iowa State University","NCAA D1","","IA","https://www.iastate.edu","","311",70
"Ithaca College","NCAA D1","","NY","https://www.ithaca.edu/","","313",70
"Jackson State University","NCAA D1","","MS","https://www.jsums.edu/","","314",70
"Jacksonville State University","NCAA D1","","AL","https://www.jsu.edu","","315",70
"Jacksonville University","NCAA D1","","FL","https://www.ju.edu","","316",70
"James Madison University","NCAA D1","","VA","https://www.jmu.edu/","","317",70
"Jessup University ","NCAA D1","","CA","https://jessup.edu","","30262",70
"John Carroll University","NCAA D1","","OH","https://www.jcu.edu","","320",70
"John Jay College of Criminal Justice","NCAA D1","","NY","https://www.jjay.cuny.edu/","","321",70
"Johns Hopkins University","NCAA D1","","MD","https://www.jhu.edu/","","322",70
"Johnson & Wales University (Providence)","NCAA D1","","RI","https://www.jwu.edu","","22626",70
"Johnson C. Smith University","NCAA D1","","NC","https://www.jcsu.edu","","323",70
"Juniata College","NCAA D1","","PA","https://www.juniata.edu/","","325",70
"Kalamazoo College","NCAA D1","","MI","https://www.kzoo.edu/","","326",70
"Kansas State University","NCAA D1","","KS","https://www.k-state.edu","","327",70
"Kean University","NCAA D1","","NJ","https://www.kean.edu","","329",70
"Keene State College","NCAA D1","","NH","https://www.keene.edu","","330",70
"Kennesaw State University","NCAA D1","","GA","https://www.kennesaw.edu/","","1157",70
"Kent State University","NCAA D1","","OH","https://www.kent.edu","","331",70
"Kentucky State University","NCAA D1","","KY","https://www.kysu.edu/","","332",70
"Kentucky Wesleyan College","NCAA D1","","KY","https://kwc.edu","","333",70
"Kenyon College","NCAA D1","","OH","https://www.kenyon.edu","","335",70
"Keuka College","NCAA D1","","NY","https://www.keuka.edu/","","1159",70
"Keystone College","NCAA D1","","PA","https://www.keystone.edu","","30047",70
"King University","NCAA D1","","TN","https://www.king.edu/","","30051",70
"King's College (Pennsylvania)","NCAA D1","","PA","https://www.kings.edu/","","336",70
"Knox College","NCAA D1","","IL","https://www.knox.edu","","337",70
"Kutztown University of Pennsylvania","NCAA D1","","PA","https://www.kutztown.edu","","339",70
"La Roche University","NCAA D1","","PA","https://www.laroche.edu","","1163",70
"La Salle University","NCAA D1","","PA","https://www.lasalle.edu/","","340",70
"Lafayette College","NCAA D1","","PA","https://www.lafayette.edu","","342",70
"LaGrange College","NCAA D1","","GA","https://www.lagrange.edu","","1162",70
"Lake Erie College","NCAA D1","","OH","https://www.lec.edu","","2746",70
"Lake Forest College","NCAA D1","","IL","https://www.lakeforest.edu","","344",70
"Lake Superior State University","NCAA D1","","MI","https://lssu.edu","","345",70
"Lakeland University","NCAA D1","","WI","https://www.lakeland.edu/","","1164",70
"Lamar University","NCAA D1","","TX","https://www.lamar.edu","","346",70
"Lancaster Bible College","NCAA D1","","PA","https://www.lbc.edu","","30085",70
"Lander University","NCAA D1","","SC","https://www.lander.edu/","","1167",70
"Lane College","NCAA D1","","TN","https://www.lanecollege.edu","","347",70
"Lasell University","NCAA D1","","MA","https://www.lasell.edu","","8486",70
"Lawrence University","NCAA D1","","WI","https://www.lawrence.edu/","","348",70
"Le Moyne College","NCAA D1","","NY","https://www.lemoyne.edu/","","349",70
"Lebanon Valley College","NCAA D1","","PA","https://www.lvc.edu","","351",70
"Lee University","NCAA D1","","TN","https://www.leeuniversity.edu/","","30013",70
"Lees-McRae College","NCAA D1","","NC","https://www.lmc.edu","","13302",70
"Lehigh University","NCAA D1","","PA","https://www.lehigh.edu","","352",70
"Lehman College","NCAA D1","","NY","https://www.lehman.edu","","279",70
"LeMoyne-Owen College","NCAA D1","","TN","https://www.loc.edu","","350",70
"Lenoir-Rhyne University","NCAA D1","","NC","https://www.LR.edu","","1170",70
"Lesley University","NCAA D1","","MA","https://www.lesley.edu","","24317",70
"LeTourneau University","NCAA D1","","TX","https://www.letu.edu","","8490",70
"Lewis & Clark College","NCAA D1","","OR","https://www.lclark.edu","","22235",70
"Lewis University","NCAA D1","","IL","https://www.lewisu.edu","","354",70
"Liberty University","NCAA D1","","VA","https://www.liberty.edu","","355",70
"Lincoln Memorial University","NCAA D1","","TN","https://www.lmunet.edu/","","1176",70
"Lincoln University (Missouri)","NCAA D1","","MO","https://www.lincolnu.edu/","","356",70
"Lincoln University (Pennsylvania)","NCAA D1","","PA","https://www.lincoln.edu","","357",70
"Lindenwood University","NCAA D1","","MO","https://www.lindenwood.edu","","30136",70
"Linfield University","NCAA D1","","OR","https://www.linfield.edu","","1179",70
"Lipscomb University","NCAA D1","","TN","https://www.lipscomb.edu","","28600",70
"Livingstone College","NCAA D1","","NC","https://www.livingstone.edu/","","359",70
"Lock Haven University of Pennsylvania","NCAA D1","","PA","https://www.lockhaven.edu","","360",70
"Long Beach State University","NCAA D1","","CA","https://www.csulb.edu","","99",70
"Long Island University","NCAA D1","","NY","https://liu.edu","","361",70
"Longwood University","NCAA D1","","VA","https://www.longwood.edu/","","363",70
"Loras College","NCAA D1","","IA","https://www.loras.edu","","364",70
"Louisiana State University","NCAA D1","","LA","https://www.lsu.edu","","365",70
"Louisiana Tech University","NCAA D1","","LA","https://www.latech.edu/","","366",70
"Loyola Marymount University","NCAA D1","","CA","https://www.lmu.edu","","370",70
"Loyola University Chicago","NCAA D1","","IL","https://www.luc.edu","","371",70
"Loyola University Maryland","NCAA D1","","MD","https://www.loyola.edu","","369",70
"Lubbock Christian University","NCAA D1","","TX","https://www.lcu.edu","","30177",70
"Luther College","NCAA D1","","IA","https://www.luther.edu/","","372",70
"Lycoming College","NCAA D1","","PA","https://www.lycoming.edu","","373",70
"Lynn University","NCAA D1","","FL","https://www.lynn.edu","","20794",70
"Lyon College","NCAA D1","","AR","https://www.lyon.edu/","","22989",70
"Macalester College","NCAA D1","","MN","https://www.macalester.edu/","","376",70
"Maine Maritime Academy","NCAA D1","","ME","https://www.mainemaritime.edu/","","378",70
"Malone University","NCAA D1","","OH","https://www.malone.edu","","30137",70
"Manchester University","NCAA D1","","IN","https://www.manchester.edu","","1192",70
"Manhattan University","NCAA D1","","NY","https://www.manhattan.edu","","381",70
"Manhattanville University","NCAA D1","","NY","https://www.mville.edu","","382",70
"Mansfield University of Pennsylvania","NCAA D1","","PA","https://www.mansfield.edu","","384",70
"Maranatha Baptist University","NCAA D1","","WI","https://www.mbu.edu/","","1194",70
"Marian University (Wisconsin)","NCAA D1","","WI","https://www.marianuniversity.edu","","1196",70
"Marietta College","NCAA D1","","OH","https://www.marietta.edu/","","385",70
"Marist University","NCAA D1","","NY","https://marist.edu","","386",70
"Marquette University","NCAA D1","","WI","https://www.marquette.edu","","387",70
"Mars Hill University","NCAA D1","","NC","https://www.mhu.edu","","1199",70
"Marshall University","NCAA D1","","WV","https://www.marshall.edu","","388",70
"Martin Luther College","NCAA D1","","MN","https://www.mlc-wels.edu","","8597",70
"Mary Baldwin University","NCAA D1","","VA","https://www.marybaldwin.edu/","","389",70
"Marymount University (Virginia)","NCAA D1","","VA","https://www.marymount.edu/","","394",70
"Maryville College (Tennessee)","NCAA D1","","TN","https://www.maryvillecollege.edu","","396",70
"Maryville University of Saint Louis","NCAA D1","","MO","https://www.maryville.edu","","395",70
"Marywood University","NCAA D1","","PA","https://www.marywood.edu","","397",70
"Massachusetts College of Liberal Arts","NCAA D1","","MA","https://www.mcla.edu/","","486",70
"Massachusetts Institute of Technology","NCAA D1","","MA","https://web.mit.edu","","398",70
"Massachusetts Maritime Academy","NCAA D1","","MA","https://www.maritime.edu","","399",70
"McDaniel College","NCAA D1","","MD","https://www.mcdaniel.edu/","","773",70
"McKendree University","NCAA D1","","IL","https://www.mckendree.edu","","30138",70
"McMurry University","NCAA D1","","TX","https://www.mcm.edu","","8530",70
"McNeese State University","NCAA D1","","LA","https://www.mcneese.edu/","","402",70
"Medgar Evers College","NCAA D1","","NY","https://www.mec.cuny.edu","","403",70
"Mercer University","NCAA D1","","GA","https://www2.mercer.edu/default.htm","","406",70
"Mercy University","NCAA D1","","NY","https://www.mercy.edu","","407",70
"Mercyhurst University","NCAA D1","","PA","https://mercyhurst.edu","","408",70
"Meredith College","NCAA D1","","NC","https://www.meredith.edu","","409",70
"Merrimack College","NCAA D1","","MA","https://www.merrimack.edu","","410",70
"Messiah University","NCAA D1","","PA","https://www.messiah.edu","","411",70
"Methodist University","NCAA D1","","NC","https://www.methodist.edu","","412",70
"Metropolitan State University of Denver","NCAA D1","","CO","https://www.msudenver.edu","","413",70
"Miami University (Ohio)","NCAA D1","","OH","https://www.miamiOH.edu","","414",70
"Michigan State University","NCAA D1","","MI","https://www.msu.edu","","416",70
"Michigan Technological University","NCAA D1","","MI","https://www.mtu.edu","","417",70
"Middle Tennessee State University","NCAA D1","","TN","https://www.mtsu.edu/","","419",70
"Middlebury College","NCAA D1","","VT","https://www.middlebury.edu/","","420",70
"Midwestern State University","NCAA D1","","TX","https://www.msutexas.edu/","","1222",70
"Miles College","NCAA D1","","AL","https://www.miles.edu","","422",70
"Millersville University of Pennsylvania","NCAA D1","","PA","https://www.millersville.edu","","423",70
"Millikin University","NCAA D1","","IL","https://www.millikin.edu/","","424",70
"Millsaps College","NCAA D1","","MS","https://www.millsaps.edu","","426",70
"Milwaukee School of Engineering","NCAA D1","","WI","https://www.msoe.edu/","","20220",70
"Minnesota State University Moorhead","NCAA D1","","MN","https://www.mnstate.edu/","","1240",70
"Minnesota State University, Mankato","NCAA D1","","MN","https://www.mnsu.edu/","","383",70
"Minot State University","NCAA D1","","ND","https://www.minotstateu.edu","","30125",70
"Misericordia University","NCAA D1","","PA","https://www.misericordia.edu/","","16142",70
"Mississippi College","NCAA D1","","MS","https://www.mc.edu","","429",70
"Mississippi State University","NCAA D1","","MS","https://www.msstate.edu","","430",70
"Mississippi University for Women","NCAA D1","","MS","https://www.muw.edu","","431",70
"Mississippi Valley State University","NCAA D1","","MS","https://www.mvsu.edu","","432",70
"Missouri Southern State University","NCAA D1","","MO","https://www.mssu.edu/","","9012",70
"Missouri State University","NCAA D1","","MO","https://www.missouristate.edu","","669",70
"Missouri University of Science and Technology","NCAA D1","","MO","https://www.mst.edu","","435",70
"Missouri Western State University","NCAA D1","","MO","https://www.missouriwestern.edu","","9013",70
"Mitchell College","NCAA D1","","CT","https://www.mitchell.edu","","30042",70
"Molloy University","NCAA D1","","NY","https://www.molloy.edu/","","437",70
"Monmouth College (Illinois)","NCAA D1","","IL","https://www.monmouthcollege.edu","","438",70
"Monmouth University","NCAA D1","","NJ","https://www.monmouth.edu/","","439",70
"Montana State University Billings","NCAA D1","","MT","https://www.msubillings.edu","","205",70
"Montana State University-Bozeman","NCAA D1","","MT","https://www.montana.edu/","","440",70
"Montclair State University","NCAA D1","","NJ","https://www.montclair.edu/","","442",70
"Moravian University","NCAA D1","","PA","https://www.moravian.edu","","443",70
"Morehead State University","NCAA D1","","KY","https://www.moreheadstate.edu","","444",70
"Morehouse College","NCAA D1","","GA","https://www.morehouse.edu","","445",70
"Morgan State University","NCAA D1","","MD","https://www.morgan.edu","","446",70
"Mount Aloysius College","NCAA D1","","PA","https://www.mtaloy.edu","","30036",70
"Mount Holyoke College","NCAA D1","","MA","https://www.mtholyoke.edu/","","449",70
"Mount Saint Mary College (New York)","NCAA D1","","NY","https://www.msmc.edu/","","1468",70
"Mount St. Joseph University","NCAA D1","","OH","https://www.msj.edu/","","8567",70
"Mount St. Mary's University","NCAA D1","","MD","https://www.msmary.edu","","450",70
"Muhlenberg College","NCAA D1","","PA","https://www.muhlenberg.edu","","453",70
"Murray State University","NCAA D1","","KY","https://www.murraystate.edu/","","454",70
"Muskingum University","NCAA D1","","OH","https://www.muskingum.edu","","455",70
"Nazareth University","NCAA D1","","NY","https://www.naz.edu","","461",70
"Nebraska Wesleyan University","NCAA D1","","NE","https://www.nebrwesleyan.edu/","","462",70
"Neumann University","NCAA D1","","PA","https://www.neumann.edu","","1254",70
"New England College","NCAA D1","","NH","https://www.nec.edu/","","467",70
"New Jersey City University","NCAA D1","","NJ","https://www.njcu.edu","","319",70
"New Jersey Institute of Technology","NCAA D1","","NJ","https://www.njit.edu","","471",70
"New Mexico Highlands University","NCAA D1","","NM","https://www.nmhu.edu","","8577",70
"New Mexico State University","NCAA D1","","NM","https://www.nmsu.edu","","472",70
"New York University","NCAA D1","","NY","https://www.nyu.edu","","479",70
"Newberry College","NCAA D1","","SC","https://www.newberry.edu/","","1257",70
"Newman University","NCAA D1","","KS","https://www.newmanu.edu","","30054",70
"Niagara University","NCAA D1","","NY","https://www.niagara.edu","","482",70
"Nicholls State University","NCAA D1","","LA","https://www.nicholls.edu","","483",70
"Nichols College","NCAA D1","","MA","https://www.nichols.edu","","484",70
"Norfolk State University","NCAA D1","","VA","https://www.nsu.edu","","485",70
"North Carolina A&T State University","NCAA D1","","NC","https://www.ncat.edu","","488",70
"North Carolina Central University","NCAA D1","","NC","https://www.nccu.edu","","489",70
"North Carolina State University","NCAA D1","","NC","https://www.ncsu.edu","","490",70
"North Carolina Wesleyan University","NCAA D1","","NC","https://ncwu.edu/","","491",70
"North Central College","NCAA D1","","IL","https://noctrl.edu/","","492",70
"North Central University","NCAA D1","","MN","https://www.northcentral.edu/","","30039",70
"North Dakota State University","NCAA D1","","ND","https://www.ndsu.edu/","","493",70
"North Greenville University","NCAA D1","","SC","https://www.ngu.edu/","","9223",70
"North Park University","NCAA D1","","IL","https://www.northpark.edu/","","496",70
"Northeastern State University","NCAA D1","","OK","https://www.nsuok.edu","","12810",70
"Northeastern University","NCAA D1","","MA","https://www.northeastern.edu","","500",70
"Northern Arizona University","NCAA D1","","AZ","https://www.nau.edu","","501",70
"Northern Illinois University","NCAA D1","","IL","https://www.niu.edu","","503",70
"Northern Kentucky University","NCAA D1","","KY","https://www.nku.edu","","505",70
"Northern Michigan University","NCAA D1","","MI","https://www.nmu.edu","","506",70
"Northern State University","NCAA D1","","SD","https://northern.edu","","1266",70
"Northwest Missouri State University","NCAA D1","","MO","https://nwmissouri.edu","","507",70
"Northwest Nazarene University","NCAA D1","","ID","https://www.nnu.edu","","1274",70
"Northwestern Oklahoma State University","NCAA D1","","OK","https://www.nwosu.edu","","30178",70
"Northwestern State University","NCAA D1","","LA","https://www.nsula.edu","","508",70
"Northwestern University","NCAA D1","","IL","https://www.northwestern.edu","","509",70
"Northwood University","NCAA D1","","MI","https://www.northwood.edu","","510",70
"Norwich University","NCAA D1","","VT","https://www.norwich.edu","","511",70
"Notre Dame of Maryland University","NCAA D1","","MD","https://www.ndm.edu","","8600",70
"Nova Southeastern University","NCAA D1","","FL","https://www.nova.edu","","24639",70
"Oakland University","NCAA D1","","MI","https://www.oakland.edu","","514",70
"Oberlin College","NCAA D1","","OH","https://www.oberlin.edu/","","515",70
"Occidental College","NCAA D1","","CA","https://www.oxy.edu","","516",70
"Oglethorpe University","NCAA D1","","GA","https://www.oglethorpe.edu","","2713",70
"Ohio Dominican University","NCAA D1","","OH","https://www.ohiodominican.edu/","","30119",70
"Ohio Northern University","NCAA D1","","OH","https://www.onu.edu/","","517",70
"Ohio University","NCAA D1","","OH","https://www.ohio.edu","","519",70
"Ohio Wesleyan University","NCAA D1","","OH","https://www.owu.edu","","520",70
"Oklahoma Baptist University","NCAA D1","","OK","https://www.okbu.edu","","30202",70
"Oklahoma Christian University","NCAA D1","","OK","https://www.oc.edu","","30179",70
"Oklahoma State University","NCAA D1","","OK","https://www.okstate.edu","","521",70
"Old Dominion University","NCAA D1","","VA","https://www.odu.edu","","523",70
"Oral Roberts University","NCAA D1","","OK","https://www.oru.edu","","527",70
"Oregon State University","NCAA D1","","OR","https://oregonstate.edu/","","528",70
"Otterbein University","NCAA D1","","OH","https://www.otterbein.edu/","","531",70
"Ouachita Baptist University","NCAA D1","","AR","https://www.obu.edu","","1289",70
"Pace University","NCAA D1","","NY","https://www.pace.edu","","533",70
"Pacific Lutheran University","NCAA D1","","WA","https://www.plu.edu/","","1297",70
"Pacific University (Oregon)","NCAA D1","","OR","https://www.pacificu.edu/","","2751",70
"Palm Beach Atlantic University","NCAA D1","","FL","https://www.pba.edu","","30045",70
"Penn State Berks College","NCAA D1","","PA","https://www.berks.psu.edu","","30044",70
"Penn State Harrisburg","NCAA D1","","PA","https://www.hbg.psu.edu","","30081",70
"Penn State University, Abington","NCAA D1","","PA","https://www.abington.psu.edu","","30114",70
"Penn State University, Altoona","NCAA D1","","PA","https://www.altoona.psu.edu","","25719",70
"Pennsylvania College of Technology","NCAA D1","","PA","https://www.pct.edu","","30190",70
"Pennsylvania State Univ. Erie, the Behrend College","NCAA D1","","PA","https://pserie.psu.edu","","538",70
"Pennsylvania State University","NCAA D1","","PA","https://www.psu.edu","","539",70
"Pennsylvania Western University, California","NCAA D1","","PA","https://www.pennwest.edu","","106",70
"Pennsylvania Western University, Clarion","NCAA D1","","PA","https://www.pennwest.edu","","143",70
"Pennsylvania Western University, Edinboro","NCAA D1","","PA","https://www.edinboro.edu","","209",70
"Pepperdine University","NCAA D1","","CA","https://www.pepperdine.edu/","","541",70
"Pfeiffer University","NCAA D1","","NC","https://www.Pfeiffer.edu","","542",70
"Piedmont University","NCAA D1","","GA","https://www.piedmont.edu/","","21830",70
"Pittsburg State University","NCAA D1","","KS","https://www.pittstate.edu","","1314",70
"Plattsburgh State University of New York","NCAA D1","","NY","https://www.plattsburgh.edu/","","547",70
"Plymouth State University","NCAA D1","","NH","https://www.plymouth.edu/","","548",70
"Point Loma Nazarene University","NCAA D1","","CA","https://www.pointloma.edu","","30149",70
"Pomona-Pitzer Colleges","NCAA D1","","CA","https://www.pomona.edu; www.pitzer.edu","","549",70
"Portland State University","NCAA D1","","OR","https://pdx.edu","","550",70
"Post University","NCAA D1","","CT","https://www.post.edu","","1318",70
"Prairie View A&M University","NCAA D1","","TX","https://www.pvamu.edu","","553",70
"Pratt Institute","NCAA D1","","NY","https://www.pratt.edu","","2715",70
"Presbyterian College","NCAA D1","","SC","https://presby.edu","","1320",70
"Princeton University","NCAA D1","","NJ","https://www.princeton.edu","","554",70
"Principia College","NCAA D1","","IL","https://www.principiacollege.edu","","555",70
"Providence College","NCAA D1","","RI","https://www.providence.edu/","","556",70
"Purchase College, State University of New York","NCAA D1","","NY","https://www.purchase.edu","","30029",70
"Purdue University","NCAA D1","","IN","https://www.purdue.edu","","559",70
"Purdue University Fort Wayne","NCAA D1","","IN","https://www.pfw.edu/","","308",70
"Purdue University Northwest","NCAA D1","","IN","https://www.pnw.edu","","30222",70
"Queens College (New York)","NCAA D1","","NY","https://www.qc.cuny.edu","","560",70
"Queens University of Charlotte","NCAA D1","","NC","https://www.queens.edu","","11504",70
"Quincy University","NCAA D1","","IL","https://quincy.edu","","561",70
"Quinnipiac University","NCAA D1","","CT","https://www.quinnipiac.edu","","562",70
"Radford University","NCAA D1","","VA","https://www.radford.edu/","","563",70
"Ramapo College","NCAA D1","","NJ","https://www.ramapo.edu","","564",70
"Randolph College","NCAA D1","","VA","https://www.randolphcollege.edu","","566",70
"Randolph-Macon College","NCAA D1","","VA","https://www.rmc.edu","","565",70
"Regis College (Massachusetts)","NCAA D1","","MA","https://www.regiscollege.edu/","","569",70
"Regis University (Colorado)","NCAA D1","","CO","https://www.regis.edu","","568",70
"Rensselaer Polytechnic Institute","NCAA D1","","NY","https://www.rpi.edu","","570",70
"Rhode Island College","NCAA D1","","RI","https://www.ric.edu","","571",70
"Rhodes College","NCAA D1","","TN","https://www.rhodes.edu/","","573",70
"Rice University","NCAA D1","","TX","https://www.rice.edu","","574",70
"Rider University","NCAA D1","","NJ","https://www.rider.edu","","576",70
"Ripon College","NCAA D1","","WI","https://www.ripon.edu","","577",70
"Rivier University","NCAA D1","","NH","https://www.rivier.edu","","18422",70
"Roanoke College","NCAA D1","","VA","https://www.roanoke.edu/","","578",70
"Robert Morris University","NCAA D1","","PA","https://www.rmu.edu","","579",70
"Roberts Wesleyan University","NCAA D1","","NY","https://www.roberts.edu","","30150",70
"Rochester Institute of Technology","NCAA D1","","NY","https://www.rit.edu/","","580",70
"Rockford University","NCAA D1","","IL","https://www.rockford.edu","","582",70
"Rockhurst University","NCAA D1","","MO","https://www.rockhurst.edu/","","1328",70
"Roger Williams University","NCAA D1","","RI","https://www.rwu.edu/","","583",70
"Rogers State University","NCAA D1","","OK","https://www.rsu.edu","","30180",70
"Rollins College","NCAA D1","","FL","https://Rollins.edu","","584",70
"Rose-Hulman Institute of Technology","NCAA D1","","IN","https://www.rose-hulman.edu/","","585",70
"Rosemont College","NCAA D1","","PA","https://www.rosemont.edu/","","15882",70
"Rowan University","NCAA D1","","NJ","https://www.rowan.edu/","","259",70
"Russell Sage College","NCAA D1","","NY","https://www.sage.edu/","","11036",70
"Rutgers, The State Univ. of New Jersey, Camden","NCAA D1","","NJ","https://www.camden.rutgers.edu","","588",70
"Rutgers, The State Univ. of New Jersey, Newark","NCAA D1","","NJ","https://www.newark.rutgers.edu","","589",70
"Rutgers, The State University of New Jersey, New Brunswick","NCAA D1","","NJ","https://www.rutgers.edu","","587",70
"Sacred Heart University","NCAA D1","","CT","https://www.sacredheart.edu","","590",70
"Saginaw Valley State University","NCAA D1","","MI","https://www.svsu.edu","","591",70
"Saint Anselm College","NCAA D1","","NH","https://www.anselm.edu","","593",70
"Saint Augustine's University","NCAA D1","","NC","https://www.st-aug.edu/","","594",70
"Saint Elizabeth University","NCAA D1","","NJ","https://www.steu.edu","","9684",70
"Saint Francis University ","NCAA D1","","PA","https://www.francis.edu","","600",70
"Saint John's University (Minnesota)","NCAA D1","","MN","https://www.csbsju.edu","","602",70
"Saint Joseph's College (Maine)","NCAA D1","","ME","https://www.sjcme.edu","","605",70
"Saint Joseph's University","NCAA D1","","PA","https://www.sju.edu","","606",70
"Saint Leo University","NCAA D1","","FL","https://www.saintleo.edu","","608",70
"Saint Louis University","NCAA D1","","MO","https://www.slu.edu/","","609",70
"Saint Martin's University","NCAA D1","","WA","https://www.stmartin.edu/","","1343",70
"Saint Mary's College (Indiana)","NCAA D1","","IN","https://www.saintmarys.edu/","","8688",70
"Saint Mary's College of California","NCAA D1","","CA","https://www.stmarys-ca.edu/","","610",70
"Saint Mary's University of Minnesota","NCAA D1","","MN","https://www.smumn.edu","","612",70
"Saint Michael's College","NCAA D1","","VT","https://www.smcvt.edu","","613",70
"Saint Peter's University","NCAA D1","","NJ","https://www.saintpeters.edu.","","617",70
"Saint Vincent College","NCAA D1","","PA","https://www.stvincent.edu","","30064",70
"Salem College (North Carolina)","NCAA D1","","NC","https://www.salem.edu/","","30041",70
"Salem State University","NCAA D1","","MA","https://www.salemstate.edu","","621",70
"Salem University (West Virginia)","NCAA D1","","WV","https://www.salemu.edu/","","19117",70
"Salisbury University","NCAA D1","","MD","https://www.salisbury.edu/","","622",70
"Salve Regina University","NCAA D1","","RI","https://www.salve.edu","","623",70
"Sam Houston State University","NCAA D1","","TX","https://www.shsu.edu","","624",70
"Samford University","NCAA D1","","AL","https://www.samford.edu/","","625",70
"San Diego State University","NCAA D1","","CA","https://www.sdsu.edu","","626",70
"San Francisco State University","NCAA D1","","CA","https://www.sfsu.edu/","","628",70
"San Jose State University","NCAA D1","","CA","https://www.sjsu.edu","","630",70
"Santa Clara University","NCAA D1","","CA","https://scu.edu","","631",70
"Sarah Lawrence College","NCAA D1","","NY","https://www.sarahlawrence.edu","","30163",70
"Savannah State University","NCAA D1","","GA","https://www.savannahstate.edu","","632",70
"Schreiner University","NCAA D1","","TX","https://www.schreiner.edu/","","1355",70
"Seattle Pacific University","NCAA D1","","WA","https://spu.edu/","","634",70
"Seattle University","NCAA D1","","WA","https://seattleu.edu","","1356",70
"Seton Hall University","NCAA D1","","NJ","https://www.shu.edu","","635",70
"Seton Hill University","NCAA D1","","PA","https://www.setonhill.edu/","","30063",70
"Shaw University","NCAA D1","","NC","https://www.shawuniversity.edu","","636",70
"Shenandoah University","NCAA D1","","VA","https://www.su.edu","","637",70
"Shepherd University","NCAA D1","","WV","https://shepherd.edu","","10870",70
"Shippensburg University of Pennsylvania","NCAA D1","","PA","https://www.ship.edu","","638",70
"Shorter University","NCAA D1","","GA","https://www.shorter.edu","","30151",70
"Siena University","NCAA D1","","NY","https://www.siena.edu","","639",70
"Simmons University","NCAA D1","","MA","https://www.simmons.edu/","","640",70
"Simon Fraser University","NCAA D1","","BC","https://www.sfu.ca","","30127",70
"Simpson College","NCAA D1","","IA","https://www.simpson.edu/","","641",70
"Skidmore College","NCAA D1","","NY","https://www.skidmore.edu/","","642",70
"Slippery Rock University of Pennsylvania","NCAA D1","","PA","https://www.sru.edu","","643",70
"Smith College","NCAA D1","","MA","https://www.smith.edu/","","644",70
"Sonoma State University","NCAA D1","","CA","https://www.sonoma.edu/","","645",70
"South Carolina State University","NCAA D1","","SC","https://www.scsu.edu/","","647",70
"South Dakota School of Mines & Technology","NCAA D1","","SD","https://sdmines.sdsmt.edu/sdsmt","","30139",70
"South Dakota State University","NCAA D1","","SD","https://www.sdstate.edu","","649",70
"Southeast Missouri State University","NCAA D1","","MO","https://www.semo.edu","","654",70
"Southeastern Louisiana University","NCAA D1","","LA","https://www.southeastern.edu","","655",70
"Southeastern Oklahoma State University","NCAA D1","","OK","https://www.se.edu","","1371",70
"Southern Arkansas University","NCAA D1","","AR","https://www.saumag.edu","","1376",70
"Southern Connecticut State University","NCAA D1","","CT","https://southernct.edu","","658",70
"Southern Illinois University at Carbondale","NCAA D1","","IL","https://www.siuc.edu/","","659",70
"Southern Illinois University Edwardsville","NCAA D1","","IL","https://www.siue.edu","","660",70
"Southern Methodist University","NCAA D1","","TX","https://www.smu.edu","","663",70
"Southern Nazarene University","NCAA D1","","OK","https://snu.edu","","30152",70
"Southern New Hampshire University","NCAA D1","","NH","https://www.snhu.edu","","468",70
"Southern University, Baton Rouge","NCAA D1","","LA","https://www.subr.edu","","665",70
"Southern Utah University","NCAA D1","","UT","https://www.suu.edu","","667",70
"Southern Virginia University","NCAA D1","","VA","https://www.svu.edu","","30164",70
"Southern Wesleyan University","NCAA D1","","SC","https://www.swu.edu","","30192",70
"Southwest Baptist University","NCAA D1","","MO","https://www.sbuniv.edu","","2755",70
"Southwest Minnesota State University","NCAA D1","","MN","https://www.smsu.edu","","8736",70
"Southwestern Oklahoma State University","NCAA D1","","OK","https://www.swosu.edu/","","8744",70
"Southwestern University (Texas)","NCAA D1","","TX","https://www.southwestern.edu","","8746",70
"Spalding University","NCAA D1","","KY","https://www.spalding.edu","","23260",70
"Spring Hill College","NCAA D1","","AL","https://www.shc.edu","","30191",70
"Springfield College","NCAA D1","","MA","https://www.springfieldcollege.edu/","","673",70
"St. Bonaventure University","NCAA D1","","NY","https://www.sbu.edu","","596",70
"St. Catherine University","NCAA D1","","MN","https://www.stkate.edu/","","597",70
"St. Cloud State University","NCAA D1","","MN","https://www.stcloudstate.edu/","","598",70
"St. Edward's University","NCAA D1","","TX","https://stedwards.edu","","1334",70
"St. John Fisher University","NCAA D1","","NY","https://www.sjf.edu","","601",70
"St. John's University (New York)","NCAA D1","","NY","https://www.stjohns.edu","","603",70
"St. Joseph's University NY (Brooklyn)","NCAA D1","","NY","https://www.sjny.edu/","","30072",70
"St. Joseph's University, New York L.I.","NCAA D1","","NY","https://www.sjny.edu","","1340",70
"St. Lawrence University","NCAA D1","","NY","https://www.stlawu.edu/","","607",70
"St. Mary's College of Maryland","NCAA D1","","MD","https://www.smcm.edu/","","611",70
"St. Mary's University (Texas)","NCAA D1","","TX","https://www.stmarytx.edu","","1346",70
"St. Norbert College","NCAA D1","","WI","https://www.snc.edu","","614",70
"St. Olaf College","NCAA D1","","MN","https://www.stolaf.edu","","615",70
"St. Thomas Aquinas College","NCAA D1","","NY","https://www.stac.edu/","","1348",70
"Stanford University","NCAA D1","","CA","https://www.stanford.edu","","674",70
"State University of New York at Brockport","NCAA D1","","NY","https://www.brockport.edu","","78",70
"State University of New York at Canton","NCAA D1","","NY","https://www.canton.edu/","","30165",70
"State University of New York at Cobleskill","NCAA D1","","NY","https://www.cobleskill.edu/home.asp","","30083",70
"State University of New York at Cortland","NCAA D1","","NY","https://www.cortland.edu","","168",70
"State University of New York at Delhi","NCAA D1","","NY","https://www.delhi.edu/","","30225",70
"State University of New York at Geneseo","NCAA D1","","NY","https://www.geneseo.edu/","","247",70
"State University of New York at Morrisville","NCAA D1","","NY","https://www.morrisville.edu","","30067",70
"State University of New York at New Paltz","NCAA D1","","NY","https://www.newpaltz.edu/","","475",70
"State University of New York at Old Westbury","NCAA D1","","NY","https://www.oldwestbury.edu","","524",70
"State University of New York at Oneonta","NCAA D1","","NY","https://www.oneonta.edu","","526",70
"State University of New York at Oswego","NCAA D1","","NY","https://www.oswego.edu/index","","530",70
"State University of New York at Potsdam","NCAA D1","","NY","https://www.potsdam.edu/","","552",70
"State University of New York Maritime College","NCAA D1","","NY","https://www.sunymaritime.edu/","","478",70
"State University of New York Polytechnic Institute","NCAA D1","","NY","https://www.sunypoly.edu","","9500",70
"Stephen F. Austin State University","NCAA D1","","TX","https://www.sfasu.edu/","","676",70
"Stetson University","NCAA D1","","FL","https://www.stetson.edu/","","678",70
"Stevens Institute of Technology","NCAA D1","","NJ","https://www.stevens.edu","","679",70
"Stevenson University","NCAA D1","","MD","https://www.stevenson.edu","","21852",70
"Stockton University","NCAA D1","","NJ","https://www.stockton.edu","","681",70
"Stonehill College","NCAA D1","","MA","https://www.stonehill.edu","","682",70
"Stony Brook University","NCAA D1","","NY","https://stonybrook.edu","","683",70
"Suffolk University","NCAA D1","","MA","https://www.suffolk.edu/","","684",70
"Sul Ross State University","NCAA D1","","TX","https://www.sulross.edu/","","1390",70
"Susquehanna University","NCAA D1","","PA","https://www.susqu.edu","","685",70
"Swarthmore College","NCAA D1","","PA","https://www.swarthmore.edu/","","686",70
"Sweet Briar College","NCAA D1","","VA","https://www.sbc.edu","","687",70
"Syracuse University","NCAA D1","","NY","https://syracuse.edu","","688",70
"Tarleton State University","NCAA D1","","TX","https://www.tarleton.edu/","","1395",70
"Temple University","NCAA D1","","PA","https://www.temple.edu","","690",70
"Tennessee State University","NCAA D1","","TN","https://www.tnstate.edu/","","691",70
"Tennessee Technological University","NCAA D1","","TN","https://www.tntech.edu/","","692",70
"Texas A&M International University","NCAA D1","","TX","https://www.tamiu.edu","","30090",70
"Texas A&M University-Corpus Christi","NCAA D1","","TX","https://www.tamucc.edu/","","26172",70
"Texas A&M University-Kingsville","NCAA D1","","TX","https://www.tamuk.edu/","","696",70
"Texas A&M University, College Station","NCAA D1","","TX","https://www.tamu.edu","","697",70
"Texas Christian University","NCAA D1","","TX","https://www.tcu.edu","","698",70
"Texas Lutheran University","NCAA D1","","TX","https://tlu.edu","","1400",70
"Texas Southern University","NCAA D1","","TX","https://www.tsu.edu","","699",70
"Texas State University","NCAA D1","","TX","https://www.txstate.edu","","670",70
"Texas Tech University","NCAA D1","","TX","https://www.ttu.edu","","700",70
"Texas Woman's University","NCAA D1","","TX","https://www.twu.edu","","701",70
"The Citadel","NCAA D1","","SC","https://www.citadel.edu","","141",70
"The City College of New York","NCAA D1","","NY","https://www.ccny.cuny.edu","","480",70
"The College of New Jersey","NCAA D1","","NJ","https://www.tcnj.edu","","712",70
"The College of St. Scholastica","NCAA D1","","MN","https://www.css.edu/","","618",70
"The College of Wooster","NCAA D1","","OH","https://www.wooster.edu","","807",70
"The Ohio State University","NCAA D1","","OH","https://www.osu.edu/","","518",70
"The State University of New York at Fredonia","NCAA D1","","NY","https://www.fredonia.edu","","242",70
"The University of North Carolina at Charlotte","NCAA D1","","NC","https://www.charlotte.edu","","458",70
"The University of North Carolina at Greensboro","NCAA D1","","NC","https://www.uncg.edu","","459",70
"The University of Olivet ","NCAA D1","","MI","https://www.uolivet.edu","","525",70
"The University of Southern Mississippi","NCAA D1","","MS","https://www.usm.edu","","664",70
"The University of Texas at Tyler","NCAA D1","","TX","https://www.uttyler.edu","","30028",70
"The University of Texas Permian Basin","NCAA D1","","TX","https://www.utpb.edu/","","30088",70
"The University of Texas Rio Grande Valley","NCAA D1","","TX","https://www.utrgv.edu","","536",70
"The University of Tulsa","NCAA D1","","OK","https://www.utulsa.edu","","719",70
"The University of Virginia's College at Wise","NCAA D1","","VA","https://www.uvawise.edu","","30181",70
"Thiel College","NCAA D1","","PA","https://www.thiel.edu","","707",70
"Thomas College","NCAA D1","","ME","https://www.thomas.edu/","","2758",70
"Thomas Jefferson University","NCAA D1","","PA","https://www.jefferson.edu","","543",70
"Thomas More University","NCAA D1","","KY","https://www.thomasmore.edu","","1402",70
"Tiffin University","NCAA D1","","OH","https://tiffin.edu","","1403",70
"Towson University","NCAA D1","","MD","https://www.towson.edu","","711",70
"Transylvania University","NCAA D1","","KY","https://www.transy.edu/","","28749",70
"Trevecca Nazarene University","NCAA D1","","TN","https://www.trevecca.edu","","30002",70
"Trine University","NCAA D1","","IN","https://www.trine.edu","","30037",70
"Trinity College (Connecticut)","NCAA D1","","CT","https://www.trincoll.edu","","713",70
"Trinity University (Texas)","NCAA D1","","TX","https://www.trinity.edu","","715",70
"Trinity Washington University","NCAA D1","","DC","https://www2.trinitydc.edu","","23413",70
"Troy University","NCAA D1","","AL","https://troy.edu","","716",70
"Truman State University","NCAA D1","","MO","https://www.truman.edu/","","499",70
"Tufts University","NCAA D1","","MA","https://www.tufts.edu/","","717",70
"Tulane University","NCAA D1","","LA","https://www.tulane.edu","","718",70
"Tusculum University","NCAA D1","","TN","https://www.tusculum.edu","","12830",70
"Tuskegee University","NCAA D1","","AL","https://www.tuskegee.edu","","720",70
"U.S. Air Force Academy","NCAA D1","","CO","https://usafa.edu","","721",70
"U.S. Coast Guard Academy","NCAA D1","","CT","https://www.uscga.edu/","","722",70
"U.S. Merchant Marine Academy","NCAA D1","","NY","https://usmma.edu","","724",70
"U.S. Military Academy","NCAA D1","","NY","https://www.westpoint.edu","","725",70
"U.S. Naval Academy","NCAA D1","","MD","https://www.usna.edu/","","726",70
"Union College (New York)","NCAA D1","","NY","https://www.union.edu/","","727",70
"Union University","NCAA D1","","TN","https://www.uu.edu","","30153",70
"University at Albany","NCAA D1","","NY","https://www.albany.edu","","14",70
"University at Buffalo, the State University of New York","NCAA D1","","NY","https://www.buffalo.edu","","86",70
"University of Akron","NCAA D1","","OH","https://uakron.edu","","5",70
"University of Alabama","NCAA D1","","AL","https://www.ua.edu","","8",70
"University of Alabama at Birmingham","NCAA D1","","AL","https://www.uab.edu","","9",70
"University of Alabama in Huntsville","NCAA D1","","AL","https://uah.edu","","10",70
"University of Alaska Anchorage","NCAA D1","","AK","https://www.uaa.alaska.edu","","11",70
"University of Alaska Fairbanks","NCAA D1","","AK","https://www.uaf.edu","","12",70
"University of Arizona","NCAA D1","","AZ","https://www.arizona.edu","","29",70
"University of Arkansas at Little Rock","NCAA D1","","AR","https://www.ualr.edu","","32",70
"University of Arkansas, Fayetteville","NCAA D1","","AR","https://www.uark.edu/","","31",70
"University of Arkansas, Fort Smith","NCAA D1","","AR","https://www.uafs.edu/Home/Index","","30105",70
"University of Arkansas, Monticello","NCAA D1","","AR","https://www.uamont.edu","","8411",70
"University of Arkansas, Pine Bluff","NCAA D1","","AR","https://www.uapb.edu","","2678",70
"University of Bridgeport","NCAA D1","","CT","https://www.bridgeport.edu","","74",70
"University of California, Berkeley","NCAA D1","","CA","https://www.berkeley.edu","","107",70
"University of California, Davis","NCAA D1","","CA","https://www.ucdavis.edu","","108",70
"University of California, Irvine","NCAA D1","","CA","https://www.uci.edu","","109",70
"University of California, Los Angeles","NCAA D1","","CA","https://www.ucla.edu","","110",70
"University of California, Merced","NCAA D1","","CA","https://www.ucmerced.edu","","30266",70
"University of California, Riverside","NCAA D1","","CA","https://www.ucr.edu","","111",70
"University of California, San Diego","NCAA D1","","CA","https://www.ucsd.edu","","112",70
"University of California, Santa Barbara","NCAA D1","","CA","https://www.ucsb.edu","","104",70
"University of California, Santa Cruz","NCAA D1","","CA","https://www.ucsc.edu/","","113",70
"University of Central Arkansas","NCAA D1","","AR","https://www.uca.edu","","1004",70
"University of Central Florida","NCAA D1","","FL","https://www.ucf.edu","","128",70
"University of Central Missouri","NCAA D1","","MO","https://www.ucmo.edu","","130",70
"University of Central Oklahoma","NCAA D1","","OK","https://www.uco.edu","","1009",70
"University of Charleston (West Virginia)","NCAA D1","","WV","https://www.ucwv.edu","","1013",70
"University of Chicago","NCAA D1","","IL","https://www.uchicago.edu","","137",70
"University of Cincinnati","NCAA D1","","OH","https://uc.edu","","140",70
"University of Colorado Boulder","NCAA D1","","CO","https://www.colorado.edu/","","157",70
"University of Colorado Colorado Springs","NCAA D1","","CO","https://www.uccs.edu","","9754",70
"University of Connecticut","NCAA D1","","CT","https://www.uconn.edu","","164",70
"University of Dallas","NCAA D1","","TX","https://www.udallas.edu","","1044",70
"University of Dayton","NCAA D1","","OH","https://www.udayton.edu","","175",70
"University of Delaware","NCAA D1","","DE","https://www.udel.edu","","180",70
"University of Denver","NCAA D1","","CO","https://www.du.edu","","183",70
"University of Detroit Mercy","NCAA D1","","MI","https://www.udmercy.edu","","184",70
"University of Dubuque","NCAA D1","","IA","https://www.dbq.edu","","192",70
"University of Evansville","NCAA D1","","IN","https://www.evansville.edu","","219",70
"University of Findlay","NCAA D1","","OH","https://www.findlay.edu","","1079",70
"University of Florida","NCAA D1","","FL","https://www.ufl.edu","","235",70
"University of Georgia","NCAA D1","","GA","https://www.uga.edu","","257",70
"University of Hartford","NCAA D1","","CT","https://www.hartford.edu","","272",70
"University of Hawaii at Hilo","NCAA D1","","HI","https://www.uhh.hawaii.edu","","2697",70
"University of Hawaii, Manoa","NCAA D1","","HI","https://manoa.hawaii.edu","","277",70
"University of Houston","NCAA D1","","TX","https://www.uh.edu","","288",70
"University of Idaho","NCAA D1","","ID","https://www.uidaho.edu/","","295",70
"University of Illinois Chicago","NCAA D1","","IL","https://www.uic.edu","","302",70
"University of Illinois Springfield","NCAA D1","","IL","https://www.uis.edu","","30050",70
"University of Illinois Urbana-Champaign","NCAA D1","","IL","https://illinois.edu","","301",70
"University of Indianapolis","NCAA D1","","IN","https://www.uindy.edu","","309",70
"University of Iowa","NCAA D1","","IA","https://www.uiowa.edu","","312",70
"University of Jamestown","NCAA D1","","ND","https://uj.edu","","30267",70
"University of Kansas","NCAA D1","","KS","https://ku.edu","","328",70
"University of Kentucky","NCAA D1","","KY","https://www.uky.edu","","334",70
"University of La Verne","NCAA D1","","CA","https://www.laverne.edu","","341",70
"University of Louisiana at Lafayette","NCAA D1","","LA","https://www.louisiana.edu","","671",70
"University of Louisiana Monroe","NCAA D1","","LA","https://www.ulm.edu","","498",70
"University of Louisville","NCAA D1","","KY","https://www.louisville.edu/","","367",70
"University of Lynchburg","NCAA D1","","VA","https://www.lynchburg.edu/","","374",70
"University of Maine","NCAA D1","","ME","https://umaine.edu","","380",70
"University of Maine at Presque Isle","NCAA D1","","ME","https://www.umpi.edu","","30040",70
"University of Maine, Farmington","NCAA D1","","ME","https://umf.maine.edu/","","379",70
"University of Mary","NCAA D1","","ND","https://www.umary.edu/","","30075",70
"University of Mary Hardin-Baylor","NCAA D1","","TX","https://www.umhb.edu","","1203",70
"University of Mary Washington","NCAA D1","","VA","https://www.umw.edu/","","390",70
"University of Maryland Eastern Shore","NCAA D1","","MD","https://wwwcp.umes.edu","","393",70
"University of Maryland, Baltimore County","NCAA D1","","MD","https://www.umbc.edu/","","391",70
"University of Maryland, College Park","NCAA D1","","MD","https://www.umd.edu","","392",70
"University of Massachusetts Boston","NCAA D1","","MA","https://www.umb.edu/","","401",70
"University of Massachusetts Lowell","NCAA D1","","MA","https://www.uml.edu/","","368",70
"University of Massachusetts, Amherst","NCAA D1","","MA","https://www.umass.edu","","400",70
"University of Massachusetts, Dartmouth","NCAA D1","","MA","https://www.umassd.edu","","656",70
"University of Memphis","NCAA D1","","TN","https://www.memphis.edu","","404",70
"University of Miami (Florida)","NCAA D1","","FL","https://www.miami.edu","","415",70
"University of Michigan","NCAA D1","","MI","https://www.umich.edu","","418",70
"University of Minnesota Duluth","NCAA D1","","MN","https://www.d.umn.edu/","","427",70
"University of Minnesota, Crookston","NCAA D1","","MN","https://www.umcrookston.edu","","27854",70
"University of Minnesota, Morris","NCAA D1","","MN","https://www.morris.umn.edu","","1226",70
"University of Minnesota, Twin Cities","NCAA D1","","MN","https://www.umn.edu","","428",70
"University of Mississippi","NCAA D1","","MS","https://www.olemiss.edu","","433",70
"University of Missouri-Kansas City","NCAA D1","","MO","https://www.umkc.edu","","2707",70
"University of Missouri-St. Louis","NCAA D1","","MO","https://umsl.edu","","436",70
"University of Missouri, Columbia","NCAA D1","","MO","https://www.missouri.edu","","434",70
"University of Montana","NCAA D1","","MT","https://www.umt.edu","","441",70
"University of Montevallo","NCAA D1","","AL","https://www.montevallo.edu","","1238",70
"University of Mount Olive","NCAA D1","","NC","https://www.umo.edu","","1245",70
"University of Mount Saint Vincent","NCAA D1","","NY","https://www.mountsaintvincent.edu","","451",70
"University of Mount Union","NCAA D1","","OH","https://www.mountunion.edu","","452",70
"University of Nebraska at Kearney","NCAA D1","","NE","https://www.unk.edu","","1156",70
"University of Nebraska at Omaha","NCAA D1","","NE","https://www.unomaha.edu/","","464",70
"University of Nebraska-Lincoln","NCAA D1","","NE","https://www.unl.edu","","463",70
"University of Nevada, Las Vegas","NCAA D1","","NV","https://www.unlv.edu/","","465",70
"University of Nevada, Reno","NCAA D1","","NV","https://www.unr.edu","","466",70
"University of New England","NCAA D1","","ME","https://www.une.edu","","1255",70
"University of New Hampshire","NCAA D1","","NH","https://www.unh.edu","","469",70
"University of New Haven","NCAA D1","","CT","https://www.newhaven.edu","","470",70
"University of New Mexico","NCAA D1","","NM","https://www.unm.edu/","","473",70
"University of New Orleans","NCAA D1","","LA","https://www.uno.edu","","474",70
"University of North Alabama","NCAA D1","","AL","https://www.una.edu","","487",70
"University of North Carolina Asheville","NCAA D1","","NC","https://www.unca.edu","","456",70
"University of North Carolina at Pembroke","NCAA D1","","NC","https://www.uncp.edu","","537",70
"University of North Carolina Wilmington","NCAA D1","","NC","https://www.uncw.edu","","460",70
"University of North Carolina, Chapel Hill","NCAA D1","","NC","https://www.unc.edu","","457",70
"University of North Dakota","NCAA D1","","ND","https://www.und.edu/","","494",70
"University of North Florida","NCAA D1","","FL","https://www.unf.edu","","2711",70
"University of North Georgia","NCAA D1","","GA","https://www.ung.edu/","","30052",70
"University of North Texas","NCAA D1","","TX","https://www.unt.edu","","497",70
"University of Northern Colorado","NCAA D1","","CO","https://www.unco.edu/","","502",70
"University of Northern Iowa","NCAA D1","","IA","https://uni.edu","","504",70
"University of Northwestern-St. Paul","NCAA D1","","MN","https://www.unwsp.edu","","30031",70
"University of Notre Dame","NCAA D1","","IN","https://www.nd.edu","","513",70
"University of Oklahoma","NCAA D1","","OK","https://www.ou.edu","","522",70
"University of Oregon","NCAA D1","","OR","https://www.uoregon.edu","","529",70
"University of Pennsylvania","NCAA D1","","PA","https://www.upenn.edu/","","540",70
"University of Pittsburgh","NCAA D1","","PA","https://www.pitt.edu","","545",70
"University of Pittsburgh, Bradford","NCAA D1","","PA","https://www.upb.pitt.edu/","","1315",70
"University of Pittsburgh, Greensburg","NCAA D1","","PA","https://www.greensburg.pitt.edu/","","11839",70
"University of Pittsburgh, Johnstown","NCAA D1","","PA","https://www.upj.pitt.edu","","546",70
"University of Portland","NCAA D1","","OR","https://www.up.edu","","551",70
"University of Puerto Rico, Bayamon","NCAA D1","","PR","https://www.uprb.edu","","2682",70
"University of Puerto Rico, Mayaguez","NCAA D1","","PR","https://www.uprm.edu","","24361",70
"University of Puerto Rico, Rio Piedras","NCAA D1","","PR","https://www.uprrp.edu","","2716",70
"University of Puget Sound","NCAA D1","","WA","https://www.pugetsound.edu","","557",70
"University of Redlands","NCAA D1","","CA","https://www.redlands.edu","","567",70
"University of Rhode Island","NCAA D1","","RI","https://www.uri.edu","","572",70
"University of Richmond","NCAA D1","","VA","https://www.richmond.edu","","575",70
"University of Rochester","NCAA D1","","NY","https://www.rochester.edu/","","581",70
"University of Saint Joseph (Connecticut)","NCAA D1","","CT","https://www.usj.edu","","8687",70
"University of San Diego","NCAA D1","","CA","https://www.sandiego.edu","","627",70
"University of San Francisco","NCAA D1","","CA","https://www.usfca.edu","","629",70
"University of Scranton","NCAA D1","","PA","https://www.scranton.edu","","633",70
"University of Sioux Falls","NCAA D1","","SD","https://www.usiouxfalls.edu","","30128",70
"University of South Alabama","NCAA D1","","AL","https://www.southalabama.edu","","646",70
"University of South Carolina Aiken","NCAA D1","","SC","https://www.usca.edu","","11276",70
"University of South Carolina Beaufort","NCAA D1","","SC","https://uscb.edu","","30259",70
"University of South Carolina Upstate","NCAA D1","","SC","https://www.uscupstate.edu","","10411",70
"University of South Carolina, Columbia","NCAA D1","","SC","https://www.sc.edu","","648",70
"University of South Dakota","NCAA D1","","SD","https://www.usd.edu","","650",70
"University of South Florida","NCAA D1","","FL","https://www.usf.edu/","","651",70
"University of Southern California","NCAA D1","","CA","https://usc.edu","","657",70
"University of Southern Indiana","NCAA D1","","IN","https://www.usi.edu/","","661",70
"University of Southern Maine","NCAA D1","","ME","https://www.usm.maine.edu","","662",70
"University of St. Thomas (Minnesota)","NCAA D1","","MN","https://www.stthomas.edu","","620",70
"University of St. Thomas (Texas)","NCAA D1","","TX","https://www.stthom.edu/","","2810",70
"University of Tampa","NCAA D1","","FL","https://www.ut.edu","","689",70
"University of Tennessee at Chattanooga","NCAA D1","","TN","https://www.utc.edu","","693",70
"University of Tennessee at Martin","NCAA D1","","TN","https://www.utm.edu/","","695",70
"University of Tennessee, Knoxville","NCAA D1","","TN","https://www.utk.edu","","694",70
"University of Texas at Arlington","NCAA D1","","TX","https://www.uta.edu","","702",70
"University of Texas at Austin","NCAA D1","","TX","https://www.utexas.edu","","703",70
"University of Texas at Dallas","NCAA D1","","TX","https://www.utdallas.edu/","","23121",70
"University of Texas at El Paso","NCAA D1","","TX","https://www.utep.edu","","704",70
"University of Texas at San Antonio","NCAA D1","","TX","https://www.utsa.edu","","706",70
"University of the District of Columbia","NCAA D1","","DC","https://www.udc.edu","","186",70
"University of the Incarnate Word","NCAA D1","","TX","https://www.uiw.edu","","2743",70
"University of the Ozarks (Arkansas)","NCAA D1","","AR","https://www.ozarks.edu/","","23008",70
"University of the Pacific","NCAA D1","","CA","https://www.pacific.edu","","534",70
"University of the South","NCAA D1","","TN","https://www.sewanee.edu/","","652",70
"University of Toledo","NCAA D1","","OH","https://www.utoledo.edu","","709",70
"University of Utah","NCAA D1","","UT","https://www.utah.edu/","","732",70
"University of Valley Forge","NCAA D1","","PA","https://valleyforge.edu","","30166",70
"University of Vermont","NCAA D1","","VT","https://www.uvm.edu","","738",70
"University of Virginia","NCAA D1","","VA","https://www.virginia.edu","","746",70
"University of Washington","NCAA D1","","WA","https://www.washington.edu/","","756",70
"University of West Alabama","NCAA D1","","AL","https://www.uwa.edu/","","358",70
"University of West Florida","NCAA D1","","FL","https://www.uwf.edu","","11740",70
"University of West Georgia","NCAA D1","","GA","https://www.westga.edu","","766",70
"University of Wisconsin-Eau Claire","NCAA D1","","WI","https://www.uwec.edu/","","793",70
"University of Wisconsin-Green Bay","NCAA D1","","WI","https://www.uwgb.edu","","794",70
"University of Wisconsin-La Crosse","NCAA D1","","WI","https://www.uwlax.edu","","795",70
"University of Wisconsin-Madison","NCAA D1","","WI","https://www.wisc.edu/","","796",70
"University of Wisconsin-Milwaukee","NCAA D1","","WI","https://www.uwm.edu","","797",70
"University of Wisconsin-Oshkosh","NCAA D1","","WI","https://www.uwosh.edu/","","798",70
"University of Wisconsin-Parkside","NCAA D1","","WI","https://www.uwp.edu","","799",70
"University of Wisconsin-Platteville","NCAA D1","","WI","https://www.uwplatt.edu","","800",70
"University of Wisconsin-River Falls","NCAA D1","","WI","https://www.uwrf.edu/","","801",70
"University of Wisconsin-Stevens Point","NCAA D1","","WI","https://www.uwsp.edu/","","802",70
"University of Wisconsin-Stout","NCAA D1","","WI","https://www.uwstout.edu/","","803",70
"University of Wisconsin-Superior","NCAA D1","","WI","https://www.uwsuper.edu/","","804",70
"University of Wisconsin-Whitewater","NCAA D1","","WI","https://www.uww.edu/","","805",70
"University of Wyoming","NCAA D1","","WY","https://www.uwyo.edu","","811",70
"Upper Iowa University","NCAA D1","","IA","https://www.uiu.edu/","","728",70
"Ursinus College","NCAA D1","","PA","https://www.ursinus.edu/","","730",70
"Ursuline College","NCAA D1","","OH","https://www.ursuline.edu","","30140",70
"Utah State University","NCAA D1","","UT","https://www.usu.edu","","731",70
"Utah Tech University","NCAA D1","","UT","https://utahtech.edu","","30095",70
"Utah Valley University","NCAA D1","","UT","https://www.uvu.edu","","30024",70
"Utica University","NCAA D1","","NY","https://www.utica.edu","","733",70
"Valdosta State University","NCAA D1","","GA","https://www.valdosta.edu","","734",70
"Valparaiso University","NCAA D1","","IN","https://www.valpo.edu/","","735",70
"Vanderbilt University","NCAA D1","","TN","https://vanderbilt.edu","","736",70
"Vanguard University ","NCAA D1","","CA","https://www.vanguard.edu","","30263",70
"Vassar College","NCAA D1","","NY","https://www.vassar.edu","","737",70
"Vermont State University Castleton","NCAA D1","","VT","https://www.castleton.edu","","123",70
"Vermont State University Lyndon","NCAA D1","","VT","https://www.northernvermont.edu","","30065",70
"Vermont State University-Johnson","NCAA D1","","VT","https://vermontstate.edu/","","324",70
"Villanova University","NCAA D1","","PA","https://www.villanova.edu","","739",70
"Virginia Commonwealth University","NCAA D1","","VA","https://www.vcu.edu","","740",70
"Virginia Military Institute","NCAA D1","","VA","https://www.vmi.edu","","741",70
"Virginia Polytechnic Institute and State University","NCAA D1","","VA","https://www.vt.edu","","742",70
"Virginia State University","NCAA D1","","VA","https://www.vsu.edu/","","743",70
"Virginia Union University","NCAA D1","","VA","https://www.vuu.edu/","","744",70
"Virginia Wesleyan University","NCAA D1","","VA","https://vwu.edu","","745",70
"Wabash College","NCAA D1","","IN","https://www.wabash.edu","","747",70
"Wagner College","NCAA D1","","NY","https://www.wagner.edu","","748",70
"Wake Forest University","NCAA D1","","NC","https://www.wfu.edu","","749",70
"Walsh University","NCAA D1","","OH","https://www.walsh.edu/","","30141",70
"Warren Wilson College","NCAA D1","","NC","https://www.warren-wilson.edu/","","30236",70
"Wartburg College","NCAA D1","","IA","https://www.wartburg.edu","","750",70
"Washburn University","NCAA D1","","KS","https://www.washburn.edu","","2814",70
"Washington and Jefferson College","NCAA D1","","PA","https://www.washjeff.edu","","751",70
"Washington and Lee University","NCAA D1","","VA","https://www.wlu.edu","","752",70
"Washington College (Maryland)","NCAA D1","","MD","https://www.washcoll.edu/","","753",70
"Washington State University","NCAA D1","","WA","https://www.wsu.edu","","754",70
"Washington University in St. Louis","NCAA D1","","MO","https://www.washu.edu","","755",70
"Wayne State College (Nebraska)","NCAA D1","","NE","https://www.wsc.edu/","","1433",70
"Wayne State University (Michigan)","NCAA D1","","MI","https://www.wayne.edu","","757",70
"Waynesburg University","NCAA D1","","PA","https://www.waynesburg.edu/","","1434",70
"Weber State University","NCAA D1","","UT","https://www.weber.edu","","758",70
"Webster University","NCAA D1","","MO","https://www.webster.edu/","","759",70
"Wellesley College","NCAA D1","","MA","https://www.wellesley.edu","","760",70
"Wentworth Institute of Technology","NCAA D1","","MA","https://www.wit.edu","","762",70
"Wesleyan College (Georgia)","NCAA D1","","GA","https://www.wesleyancollege.edu/","","14718",70
"Wesleyan University (Connecticut)","NCAA D1","","CT","https://www.wesleyan.edu/","","764",70
"West Chester University of Pennsylvania","NCAA D1","","PA","https://www.wcupa.edu/","","765",70
"West Liberty University","NCAA D1","","WV","https://www.westliberty.edu","","1438",70
"West Texas A&M University","NCAA D1","","TX","https://www.wtamu.edu","","767",70
"West Virginia State University","NCAA D1","","WV","https://www.wvstateu.edu","","1439",70
"West Virginia University","NCAA D1","","WV","https://www.wvu.edu","","768",70
"West Virginia Wesleyan College","NCAA D1","","WV","https://wvwc.edu","","9630",70
"Western Carolina University","NCAA D1","","NC","https://www.wcu.edu/","","769",70
"Western Colorado University","NCAA D1","","CO","https://www.western.edu","","2759",70
"Western Connecticut State University","NCAA D1","","CT","https://www.wcsu.edu/","","770",70
"Western Illinois University","NCAA D1","","IL","https://www.wiu.edu","","771",70
"Western Kentucky University","NCAA D1","","KY","https://www.wku.edu","","772",70
"Western Michigan University","NCAA D1","","MI","https://www.wmich.edu","","774",70
"Western New England University","NCAA D1","","MA","https://www.wne.edu/","","775",70
"Western New Mexico University","NCAA D1","","NM","https://www.wnmu.edu","","1445",70
"Western Oregon University","NCAA D1","","OR","https://www.wou.edu","","1446",70
"Western Washington University","NCAA D1","","WA","https://www.wwu.edu/","","1448",70
"Westfield State University","NCAA D1","","MA","https://www.westfield.ma.edu","","777",70
"Westminster College (Missouri)","NCAA D1","","MO","https://www.wcmo.edu/","","1450",70
"Westminster College (Pennsylvania)","NCAA D1","","PA","https://www.westminster.edu/","","1451",70
"Westminster University (Utah)","NCAA D1","","UT","https://www.westminsteru.edu","","30209",70
"Westmont College","NCAA D1","","CA","https://westmont.edu","","30260",70
"Wheaton College (Illinois)","NCAA D1","","IL","https://www.wheaton.edu","","778",70
"Wheaton College (Massachusetts)","NCAA D1","","MA","https://www.wheatoncollege.edu/","","779",70
"Wheeling University","NCAA D1","","WV","https://wheeling.edu/","","12799",70
"Whitman College","NCAA D1","","WA","https://www.whitman.edu","","780",70
"Whittier College","NCAA D1","","CA","https://www.whittier.edu","","781",70
"Whitworth University","NCAA D1","","WA","https://www.whitworth.edu/","","1454",70
"Wichita State University","NCAA D1","","KS","https://www.wichita.edu","","782",70
"Widener University","NCAA D1","","PA","https://www.widener.edu/","","783",70
"Wilkes University","NCAA D1","","PA","https://www.wilkes.edu","","784",70
"Willamette University","NCAA D1","","OR","https://www.willamette.edu/","","785",70
"William & Mary","NCAA D1","","VA","https://www.wm.edu","","786",70
"William Jewell College","NCAA D1","","MO","https://www.jewell.edu","","30120",70
"William Paterson University of New Jersey","NCAA D1","","NJ","https://www.wpunj.edu","","787",70
"William Peace University","NCAA D1","","NC","https://www.peace.edu/","","17094",70
"Williams College","NCAA D1","","MA","https://www.williams.edu/","","789",70
"Wilmington College (Ohio)","NCAA D1","","OH","https://www.wilmington.edu/","","1461",70
"Wilmington University (Delaware)","NCAA D1","","DE","https://www.wilmu.edu/index.aspx","","1460",70
"Wilson College","NCAA D1","","PA","https://www.wilson.edu","","12973",70
"Wingate University","NCAA D1","","NC","https://wingate.edu","","1462",70
"Winona State University","NCAA D1","","MN","https://www.winona.edu/","","790",70
"Winston-Salem State University","NCAA D1","","NC","https://www.wssu.edu","","791",70
"Winthrop University","NCAA D1","","SC","https://www.winthrop.edu/","","792",70
"Wisconsin Lutheran College","NCAA D1","","WI","https://www.wlc.edu","","8911",70
"Wittenberg University","NCAA D1","","OH","https://www.wittenberg.edu","","806",70
"Wofford College","NCAA D1","","SC","https://www.wofford.edu/","","2915",70
"Worcester Polytechnic Institute","NCAA D1","","MA","https://www.wpi.edu/","","808",70
"Worcester State University","NCAA D1","","MA","https://www.worcester.edu/","","809",70
"Wright State University","NCAA D1","","OH","https://www.wright.edu","","810",70
"Xavier University","NCAA D1","","OH","https://www.xavier.edu","","812",70
"Yale University","NCAA D1","","CT","https://www.yale.edu","","813",70
"Yeshiva University","NCAA D1","","NY","https://www.yu.edu/","","814",70
"York College (New York)","NCAA D1","","NY","https://www.york.cuny.edu","","2730",70
"York College (Pennsylvania)","NCAA D1","","PA","https://www.ycp.edu","","815",70
"Young Harris College","NCAA D1","","GA","https://www.yhc.edu","","30154",70
"Youngstown State University","NCAA D1","","OH","https://www.ysu.edu","","817",70
"EC University ","NCAA D1","","IN","","","30270",50
"Adams State University","NCAA D2","","CO","https://www.adams.edu","","929",70
"Adelphi University","NCAA D2","","NY","https://www.adelphi.edu","","3",70
"Albany State University (Georgia)","NCAA D2","","GA","https://www.asurams.edu","","13",70
"Allen University","NCAA D2","","SC","https://allenuniversity.edu","","30240",70
"American International College","NCAA D2","","MA","https://aic.edu","","22",70
"Anderson University (South Carolina)","NCAA D2","","SC","https://www.andersonuniversity.edu","","13028",70
"Angelo State University","NCAA D2","","TX","https://www.angelo.edu","","25",70
"Arkansas Tech University","NCAA D2","","AR","https://www.atu.edu","","947",70
"Ashland University","NCAA D2","","OH","https://www.ashland.edu","","35",70
"Assumption University","NCAA D2","","MA","https://www.assumption.edu","","36",70
"Auburn University at Montgomery","NCAA D2","","AL","https://www.aum.edu","","30093",70
"Augusta University","NCAA D2","","GA","https://www.augusta.edu","","39",70
"Augustana University (South Dakota)","NCAA D2","","SD","https://www.augie.edu","","41",70
"Azusa Pacific University","NCAA D2","","CA","https://www.apu.edu","","30146",70
"Barry University","NCAA D2","","FL","https://www.barry.edu","","49",70
"Barton College","NCAA D2","","NC","https://www.barton.edu","","15646",70
"Belmont Abbey College","NCAA D2","","NC","https://www.bac.edu","","2683",70
"Bemidji State University","NCAA D2","","MN","https://www.bemidjistate.edu/","","54",70
"Benedict College","NCAA D2","","SC","https://www.benedict.edu","","55",70
"Bentley University","NCAA D2","","MA","https://www.bentley.edu","","56",70
"Biola University","NCAA D2","","CA","https://www.biola.edu","","30220",70
"Black Hills State University","NCAA D2","","SD","https://www.bhsu.edu","","30134",70
"Bloomsburg University of Pennsylvania","NCAA D2","","PA","https://www.commonwealthu.edu","","65",70
"Bluefield State University","NCAA D2","","WV","https://bluefieldstate.edu","","985",70
"Bowie State University","NCAA D2","","MD","https://www.bowiestate.edu","","70",70
"Caldwell University","NCAA D2","","NJ","https://www.caldwell.edu/","","995",70
"California State Polytechnic University, Humboldt","NCAA D2","","CA","https://www.humboldt.edu","","291",70
"California State Polytechnic University, Pomona","NCAA D2","","CA","https://www.cpp.edu","","91",70
"California State University, Chico","NCAA D2","","CA","https://www.csuchico.edu","","95",70
"California State University, Dominguez Hills","NCAA D2","","CA","https://www.csudh.edu","","92",70
"California State University, East Bay","NCAA D2","","CA","https://www.csueastbay.edu","","98",70
"California State University, Los Angeles","NCAA D2","","CA","https://www.calstatela.edu","","100",70
"California State University, Monterey Bay","NCAA D2","","CA","https://www.csumb.edu","","30055",70
"California State University, San Bernardino","NCAA D2","","CA","https://www.csusb.edu","","93",70
"California State University, San Marcos","NCAA D2","","CA","https://www.csusm.edu","","30198",70
"California State University, Stanislaus","NCAA D2","","CA","https://www.csustan.edu","","103",70
"Cameron University","NCAA D2","","OK","https://www.cameron.edu","","996",70
"Carson-Newman University","NCAA D2","","TN","https://www.cn.edu","","1000",70
"Catawba College","NCAA D2","","NC","https://www.catawba.edu","","1001",70
"Cedarville University","NCAA D2","","OH","https://www.cedarville.edu","","30124",70
"Central State University","NCAA D2","","OH","https://www.centralstate.edu","","30049",70
"Central Washington University","NCAA D2","","WA","https://cwu.edu","","1010",70
"Chadron State College","NCAA D2","","NE","https://www.csc.edu","","1012",70
"Chaminade University","NCAA D2","","HI","https://www.chaminade.edu","","133",70
"Chestnut Hill College","NCAA D2","","PA","https://www.chc.edu","","21323",70
"Chowan University","NCAA D2","","NC","https://www.chowan.edu","","8875",70
"Christian Brothers University","NCAA D2","","TN","https://www.cbu.edu","","1015",70
"Claflin University","NCAA D2","","SC","https://www.claflin.edu","","30058",70
"Clark Atlanta University","NCAA D2","","GA","https://www.cau.edu","","144",70
"Clayton State University","NCAA D2","","GA","https://www.clayton.edu","","20576",70
"Coker University","NCAA D2","","SC","https://www.coker.edu","","1023",70
"College of Staten Island","NCAA D2","","NY","https://www.csi.cuny.edu","","675",70
"Colorado Christian University","NCAA D2","","CO","https://www.ccu.edu","","11403",70
"Colorado Mesa University","NCAA D2","","CO","https://coloradomesa.edu","","11416",70
"Colorado School of Mines","NCAA D2","","CO","https://mines.edu","","155",70
"Colorado State University Pueblo","NCAA D2","","CO","https://www.csupueblo.edu","","2720",70
"Columbus State University","NCAA D2","","GA","https://www.columbusstate.edu","","159",70
"Concord University","NCAA D2","","WV","https://www.concord.edu","","1028",70
"Concordia University Irvine","NCAA D2","","CA","https://www.cui.edu","","30199",70
"Concordia University, St. Paul","NCAA D2","","MN","https://www.csp.edu","","9081",70
"Converse University","NCAA D2","","SC","https://www.converse.edu","","8935",70
"D'Youville University","NCAA D2","","NY","https://www.dyc.edu","","1059",70
"Daemen University","NCAA D2","","NY","https://www.daemen.edu","","30174",70
"Dallas Baptist University","NCAA D2","","TX","https://www.dbu.edu","","1045",70
"Davenport University","NCAA D2","","MI","https://www.davenport.edu/","","30221",70
"Davis & Elkins College","NCAA D2","","WV","https://www.dewv.edu","","174",70
"Delta State University","NCAA D2","","MS","https://www.deltastate.edu","","181",70
"Dominican University New York","NCAA D2","","NY","https://www.duny.edu","","8956",70
"Dominican University of California","NCAA D2","","CA","https://www.dominican.edu","","30118",70
"Drury University","NCAA D2","","MO","https://www.drury.edu","","1057",70
"East Central University","NCAA D2","","OK","https://www.ecok.edu","","8965",70
"East Stroudsburg University of Pennsylvania","NCAA D2","","PA","https://www.esu.edu","","197",70
"Eastern New Mexico University","NCAA D2","","NM","https://www.enmu.edu","","206",70
"Eckerd College","NCAA D2","","FL","https://www.eckerd.edu/","","208",70
"Edward Waters University","NCAA D2","","FL","https://www.ewu.edu","","30244",70
"Elizabeth City State University","NCAA D2","","NC","https://www.ecsu.edu","","210",70
"Embry-Riddle Aeronautical University (Florida)","NCAA D2","","FL","https://www.erau.edu","","9680",70
"Emmanuel University (Georgia)","NCAA D2","","GA","https://www.ec.edu","","30193",70
"Emory & Henry University","NCAA D2","","VA","https://www.emoryhenry.edu","","216",70
"Emporia State University","NCAA D2","","KS","https://www.emporia.edu","","1071",70
"Erskine College","NCAA D2","","SC","https://www.erskine.edu","","1072",70
"Fairmont State University","NCAA D2","","WV","https://www.fairmontstate.edu","","1076",70
"Fayetteville State University","NCAA D2","","NC","https://www.uncfsu.edu","","223",70
"Felician University","NCAA D2","","NJ","https://www.felician.edu","","23157",70
"Ferris State University","NCAA D2","","MI","https://www.ferris.edu","","224",70
"Ferrum College","NCAA D2","","VA","https://www.ferrum.edu","","225",70
"Flagler College","NCAA D2","","FL","https://www.flagler.edu","","30092",70
"Florida Institute of Technology","NCAA D2","","FL","https://www.fit.edu/","","230",70
"Florida Southern College","NCAA D2","","FL","https://www.flsouthern.edu","","233",70
"Fort Hays State University","NCAA D2","","KS","https://www.fhsu.edu","","9011",70
"Fort Lewis College","NCAA D2","","CO","https://www.fortlewis.edu","","1083",70
"Fort Valley State University","NCAA D2","","GA","https://www.fvsu.edu","","237",70
"Francis Marion University","NCAA D2","","SC","https://www.fmarion.edu","","1085",70
"Franklin Pierce University","NCAA D2","","NH","https://www.franklinpierce.edu","","241",70
"Fresno Pacific University","NCAA D2","","CA","https://www.fresno.edu","","30147",70
"Frostburg State University","NCAA D2","","MD","https://www.frostburg.edu/","","243",70
"Gannon University","NCAA D2","","PA","https://www.gannon.edu","","246",70
"Georgia College","NCAA D2","","GA","https://www.gcsu.edu","","1096",70
"Georgia Southwestern State University","NCAA D2","","GA","https://www.gsw.edu","","1097",70
"Georgian Court University","NCAA D2","","NJ","https://www.georgian.edu","","9004",70
"Glenville State University","NCAA D2","","WV","https://www.glenville.edu","","1098",70
"Goldey-Beacom College","NCAA D2","","DE","https://www.gbc.edu","","8366",70
"Grand Valley State University","NCAA D2","","MI","https://www.gvsu.edu","","262",70
"Harding University","NCAA D2","","AR","https://www.harding.edu","","1116",70
"Hawaii Pacific University","NCAA D2","","HI","https://www.hpu.edu","","2696",70
"Henderson State University","NCAA D2","","AR","https://hsu.edu","","1123",70
"Hillsdale College","NCAA D2","","MI","https://www.hillsdale.edu","","280",70
"Holy Family University","NCAA D2","","PA","https://www.holyfamily.edu","","1126",70
"Indiana University of Pennsylvania","NCAA D2","","PA","https://iup.edu","","307",70
"Jessup University ","NCAA D2","","CA","https://jessup.edu","","30262",70
"Johnson C. Smith University","NCAA D2","","NC","https://www.jcsu.edu","","323",70
"Kentucky State University","NCAA D2","","KY","https://www.kysu.edu/","","332",70
"Kentucky Wesleyan College","NCAA D2","","KY","https://kwc.edu","","333",70
"King University","NCAA D2","","TN","https://www.king.edu/","","30051",70
"Kutztown University of Pennsylvania","NCAA D2","","PA","https://www.kutztown.edu","","339",70
"Lake Erie College","NCAA D2","","OH","https://www.lec.edu","","2746",70
"Lake Superior State University","NCAA D2","","MI","https://lssu.edu","","345",70
"Lander University","NCAA D2","","SC","https://www.lander.edu/","","1167",70
"Lane College","NCAA D2","","TN","https://www.lanecollege.edu","","347",70
"Le Moyne College","NCAA D2","","NY","https://www.lemoyne.edu/","","349",70
"Lee University","NCAA D2","","TN","https://www.leeuniversity.edu/","","30013",70
"Lees-McRae College","NCAA D2","","NC","https://www.lmc.edu","","13302",70
"LeMoyne-Owen College","NCAA D2","","TN","https://www.loc.edu","","350",70
"Lenoir-Rhyne University","NCAA D2","","NC","https://www.LR.edu","","1170",70
"Lewis University","NCAA D2","","IL","https://www.lewisu.edu","","354",70
"Lincoln Memorial University","NCAA D2","","TN","https://www.lmunet.edu/","","1176",70
"Lincoln University (Missouri)","NCAA D2","","MO","https://www.lincolnu.edu/","","356",70
"Lincoln University (Pennsylvania)","NCAA D2","","PA","https://www.lincoln.edu","","357",70
"Livingstone College","NCAA D2","","NC","https://www.livingstone.edu/","","359",70
"Lock Haven University of Pennsylvania","NCAA D2","","PA","https://www.lockhaven.edu","","360",70
"Lubbock Christian University","NCAA D2","","TX","https://www.lcu.edu","","30177",70
"Lynn University","NCAA D2","","FL","https://www.lynn.edu","","20794",70
"Malone University","NCAA D2","","OH","https://www.malone.edu","","30137",70
"Mansfield University of Pennsylvania","NCAA D2","","PA","https://www.mansfield.edu","","384",70
"Mars Hill University","NCAA D2","","NC","https://www.mhu.edu","","1199",70
"Maryville University of Saint Louis","NCAA D2","","MO","https://www.maryville.edu","","395",70
"McKendree University","NCAA D2","","IL","https://www.mckendree.edu","","30138",70
"Menlo College","NCAA D2","","CA","https://www.menlo.edu/","","405",70
"Mercy University","NCAA D2","","NY","https://www.mercy.edu","","407",70
"Mercyhurst University","NCAA D2","","PA","https://mercyhurst.edu","","408",70
"Metropolitan State University of Denver","NCAA D2","","CO","https://www.msudenver.edu","","413",70
"Michigan Technological University","NCAA D2","","MI","https://www.mtu.edu","","417",70
"Midwestern State University","NCAA D2","","TX","https://www.msutexas.edu/","","1222",70
"Miles College","NCAA D2","","AL","https://www.miles.edu","","422",70
"Millersville University of Pennsylvania","NCAA D2","","PA","https://www.millersville.edu","","423",70
"Minnesota State University Moorhead","NCAA D2","","MN","https://www.mnstate.edu/","","1240",70
"Minnesota State University, Mankato","NCAA D2","","MN","https://www.mnsu.edu/","","383",70
"Minot State University","NCAA D2","","ND","https://www.minotstateu.edu","","30125",70
"Mississippi College","NCAA D2","","MS","https://www.mc.edu","","429",70
"Missouri Southern State University","NCAA D2","","MO","https://www.mssu.edu/","","9012",70
"Missouri University of Science and Technology","NCAA D2","","MO","https://www.mst.edu","","435",70
"Missouri Western State University","NCAA D2","","MO","https://www.missouriwestern.edu","","9013",70
"Molloy University","NCAA D2","","NY","https://www.molloy.edu/","","437",70
"Montana State University Billings","NCAA D2","","MT","https://www.msubillings.edu","","205",70
"Morehouse College","NCAA D2","","GA","https://www.morehouse.edu","","445",70
"New Mexico Highlands University","NCAA D2","","NM","https://www.nmhu.edu","","8577",70
"Newberry College","NCAA D2","","SC","https://www.newberry.edu/","","1257",70
"Newman University","NCAA D2","","KS","https://www.newmanu.edu","","30054",70
"North Greenville University","NCAA D2","","SC","https://www.ngu.edu/","","9223",70
"Northeastern State University","NCAA D2","","OK","https://www.nsuok.edu","","12810",70
"Northern Michigan University","NCAA D2","","MI","https://www.nmu.edu","","506",70
"Northern State University","NCAA D2","","SD","https://northern.edu","","1266",70
"Northwest Missouri State University","NCAA D2","","MO","https://nwmissouri.edu","","507",70
"Northwest Nazarene University","NCAA D2","","ID","https://www.nnu.edu","","1274",70
"Northwestern Oklahoma State University","NCAA D2","","OK","https://www.nwosu.edu","","30178",70
"Northwood University","NCAA D2","","MI","https://www.northwood.edu","","510",70
"Nova Southeastern University","NCAA D2","","FL","https://www.nova.edu","","24639",70
"Ohio Dominican University","NCAA D2","","OH","https://www.ohiodominican.edu/","","30119",70
"Oklahoma Baptist University","NCAA D2","","OK","https://www.okbu.edu","","30202",70
"Oklahoma Christian University","NCAA D2","","OK","https://www.oc.edu","","30179",70
"Ouachita Baptist University","NCAA D2","","AR","https://www.obu.edu","","1289",70
"Pace University","NCAA D2","","NY","https://www.pace.edu","","533",70
"Palm Beach Atlantic University","NCAA D2","","FL","https://www.pba.edu","","30045",70
"Pennsylvania Western University, California","NCAA D2","","PA","https://www.pennwest.edu","","106",70
"Pennsylvania Western University, Clarion","NCAA D2","","PA","https://www.pennwest.edu","","143",70
"Pennsylvania Western University, Edinboro","NCAA D2","","PA","https://www.edinboro.edu","","209",70
"Pittsburg State University","NCAA D2","","KS","https://www.pittstate.edu","","1314",70
"Point Loma Nazarene University","NCAA D2","","CA","https://www.pointloma.edu","","30149",70
"Point Park University","NCAA D2","","PA","https://pointpark.edu","","30268",70
"Post University","NCAA D2","","CT","https://www.post.edu","","1318",70
"Purdue University Northwest","NCAA D2","","IN","https://www.pnw.edu","","30222",70
"Queens College (New York)","NCAA D2","","NY","https://www.qc.cuny.edu","","560",70
"Quincy University","NCAA D2","","IL","https://quincy.edu","","561",70
"Regis University (Colorado)","NCAA D2","","CO","https://www.regis.edu","","568",70
"Roberts Wesleyan University","NCAA D2","","NY","https://www.roberts.edu","","30150",70
"Rockhurst University","NCAA D2","","MO","https://www.rockhurst.edu/","","1328",70
"Rogers State University","NCAA D2","","OK","https://www.rsu.edu","","30180",70
"Rollins College","NCAA D2","","FL","https://Rollins.edu","","584",70
"Roosevelt University","NCAA D2","","IL","https://www.roosevelt.edu","","2807",70
"Saginaw Valley State University","NCAA D2","","MI","https://www.svsu.edu","","591",70
"Saint Anselm College","NCAA D2","","NH","https://www.anselm.edu","","593",70
"Saint Augustine's University","NCAA D2","","NC","https://www.st-aug.edu/","","594",70
"Saint Leo University","NCAA D2","","FL","https://www.saintleo.edu","","608",70
"Saint Martin's University","NCAA D2","","WA","https://www.stmartin.edu/","","1343",70
"Saint Michael's College","NCAA D2","","VT","https://www.smcvt.edu","","613",70
"Salem University (West Virginia)","NCAA D2","","WV","https://www.salemu.edu/","","19117",70
"San Francisco State University","NCAA D2","","CA","https://www.sfsu.edu/","","628",70
"Savannah State University","NCAA D2","","GA","https://www.savannahstate.edu","","632",70
"Seattle Pacific University","NCAA D2","","WA","https://spu.edu/","","634",70
"Seton Hill University","NCAA D2","","PA","https://www.setonhill.edu/","","30063",70
"Shaw University","NCAA D2","","NC","https://www.shawuniversity.edu","","636",70
"Shepherd University","NCAA D2","","WV","https://shepherd.edu","","10870",70
"Shippensburg University of Pennsylvania","NCAA D2","","PA","https://www.ship.edu","","638",70
"Shorter University","NCAA D2","","GA","https://www.shorter.edu","","30151",70
"Simon Fraser University","NCAA D2","","BC","https://www.sfu.ca","","30127",70
"Slippery Rock University of Pennsylvania","NCAA D2","","PA","https://www.sru.edu","","643",70
"Sonoma State University","NCAA D2","","CA","https://www.sonoma.edu/","","645",70
"South Dakota School of Mines & Technology","NCAA D2","","SD","https://sdmines.sdsmt.edu/sdsmt","","30139",70
"Southeastern Oklahoma State University","NCAA D2","","OK","https://www.se.edu","","1371",70
"Southern Arkansas University","NCAA D2","","AR","https://www.saumag.edu","","1376",70
"Southern Connecticut State University","NCAA D2","","CT","https://southernct.edu","","658",70
"Southern Nazarene University","NCAA D2","","OK","https://snu.edu","","30152",70
"Southern New Hampshire University","NCAA D2","","NH","https://www.snhu.edu","","468",70
"Southern Wesleyan University","NCAA D2","","SC","https://www.swu.edu","","30192",70
"Southwest Baptist University","NCAA D2","","MO","https://www.sbuniv.edu","","2755",70
"Southwest Minnesota State University","NCAA D2","","MN","https://www.smsu.edu","","8736",70
"Southwestern Oklahoma State University","NCAA D2","","OK","https://www.swosu.edu/","","8744",70
"Spring Hill College","NCAA D2","","AL","https://www.shc.edu","","30191",70
"St. Cloud State University","NCAA D2","","MN","https://www.stcloudstate.edu/","","598",70
"St. Edward's University","NCAA D2","","TX","https://stedwards.edu","","1334",70
"St. Mary's University (Texas)","NCAA D2","","TX","https://www.stmarytx.edu","","1346",70
"St. Thomas Aquinas College","NCAA D2","","NY","https://www.stac.edu/","","1348",70
"Sul Ross State University","NCAA D2","","TX","https://www.sulross.edu/","","1390",70
"Texas A&M International University","NCAA D2","","TX","https://www.tamiu.edu","","30090",70
"Texas A&M University-Kingsville","NCAA D2","","TX","https://www.tamuk.edu/","","696",70
"Texas Woman's University","NCAA D2","","TX","https://www.twu.edu","","701",70
"The University of Texas at Tyler","NCAA D2","","TX","https://www.uttyler.edu","","30028",70
"The University of Texas Permian Basin","NCAA D2","","TX","https://www.utpb.edu/","","30088",70
"The University of Virginia's College at Wise","NCAA D2","","VA","https://www.uvawise.edu","","30181",70
"Thomas Jefferson University","NCAA D2","","PA","https://www.jefferson.edu","","543",70
"Thomas More University","NCAA D2","","KY","https://www.thomasmore.edu","","1402",70
"Tiffin University","NCAA D2","","OH","https://tiffin.edu","","1403",70
"Trevecca Nazarene University","NCAA D2","","TN","https://www.trevecca.edu","","30002",70
"Truman State University","NCAA D2","","MO","https://www.truman.edu/","","499",70
"Tusculum University","NCAA D2","","TN","https://www.tusculum.edu","","12830",70
"Tuskegee University","NCAA D2","","AL","https://www.tuskegee.edu","","720",70
"Union University","NCAA D2","","TN","https://www.uu.edu","","30153",70
"University of Alabama in Huntsville","NCAA D2","","AL","https://uah.edu","","10",70
"University of Alaska Anchorage","NCAA D2","","AK","https://www.uaa.alaska.edu","","11",70
"University of Alaska Fairbanks","NCAA D2","","AK","https://www.uaf.edu","","12",70
"University of Arkansas, Fort Smith","NCAA D2","","AR","https://www.uafs.edu/Home/Index","","30105",70
"University of Arkansas, Monticello","NCAA D2","","AR","https://www.uamont.edu","","8411",70
"University of Bridgeport","NCAA D2","","CT","https://www.bridgeport.edu","","74",70
"University of California, Merced","NCAA D2","","CA","https://www.ucmerced.edu","","30266",70
"University of Central Missouri","NCAA D2","","MO","https://www.ucmo.edu","","130",70
"University of Central Oklahoma","NCAA D2","","OK","https://www.uco.edu","","1009",70
"University of Charleston (West Virginia)","NCAA D2","","WV","https://www.ucwv.edu","","1013",70
"University of Colorado Colorado Springs","NCAA D2","","CO","https://www.uccs.edu","","9754",70
"University of Findlay","NCAA D2","","OH","https://www.findlay.edu","","1079",70
"University of Hawaii at Hilo","NCAA D2","","HI","https://www.uhh.hawaii.edu","","2697",70
"University of Illinois Springfield","NCAA D2","","IL","https://www.uis.edu","","30050",70
"University of Indianapolis","NCAA D2","","IN","https://www.uindy.edu","","309",70
"University of Jamestown","NCAA D2","","ND","https://uj.edu","","30267",70
"University of Mary","NCAA D2","","ND","https://www.umary.edu/","","30075",70
"University of Minnesota Duluth","NCAA D2","","MN","https://www.d.umn.edu/","","427",70
"University of Minnesota, Crookston","NCAA D2","","MN","https://www.umcrookston.edu","","27854",70
"University of Missouri-St. Louis","NCAA D2","","MO","https://umsl.edu","","436",70
"University of Montevallo","NCAA D2","","AL","https://www.montevallo.edu","","1238",70
"University of Mount Olive","NCAA D2","","NC","https://www.umo.edu","","1245",70
"University of Nebraska at Kearney","NCAA D2","","NE","https://www.unk.edu","","1156",70
"University of New Haven","NCAA D2","","CT","https://www.newhaven.edu","","470",70
"University of North Carolina at Pembroke","NCAA D2","","NC","https://www.uncp.edu","","537",70
"University of North Georgia","NCAA D2","","GA","https://www.ung.edu/","","30052",70
"University of Pittsburgh, Johnstown","NCAA D2","","PA","https://www.upj.pitt.edu","","546",70
"University of Puerto Rico, Bayamon","NCAA D2","","PR","https://www.uprb.edu","","2682",70
"University of Puerto Rico, Mayaguez","NCAA D2","","PR","https://www.uprm.edu","","24361",70
"University of Puerto Rico, Rio Piedras","NCAA D2","","PR","https://www.uprrp.edu","","2716",70
"University of Sioux Falls","NCAA D2","","SD","https://www.usiouxfalls.edu","","30128",70
"University of South Carolina Aiken","NCAA D2","","SC","https://www.usca.edu","","11276",70
"University of South Carolina Beaufort","NCAA D2","","SC","https://uscb.edu","","30259",70
"University of Tampa","NCAA D2","","FL","https://www.ut.edu","","689",70
"University of Texas at Dallas","NCAA D2","","TX","https://www.utdallas.edu/","","23121",70
"University of the District of Columbia","NCAA D2","","DC","https://www.udc.edu","","186",70
"University of West Alabama","NCAA D2","","AL","https://www.uwa.edu/","","358",70
"University of West Florida","NCAA D2","","FL","https://www.uwf.edu","","11740",70
"University of West Georgia","NCAA D2","","GA","https://www.westga.edu","","766",70
"University of Wisconsin-Parkside","NCAA D2","","WI","https://www.uwp.edu","","799",70
"Upper Iowa University","NCAA D2","","IA","https://www.uiu.edu/","","728",70
"Ursuline College","NCAA D2","","OH","https://www.ursuline.edu","","30140",70
"Valdosta State University","NCAA D2","","GA","https://www.valdosta.edu","","734",70
"Vanguard University ","NCAA D2","","CA","https://www.vanguard.edu","","30263",70
"Virginia State University","NCAA D2","","VA","https://www.vsu.edu/","","743",70
"Virginia Union University","NCAA D2","","VA","https://www.vuu.edu/","","744",70
"Walsh University","NCAA D2","","OH","https://www.walsh.edu/","","30141",70
"Washburn University","NCAA D2","","KS","https://www.washburn.edu","","2814",70
"Wayne State College (Nebraska)","NCAA D2","","NE","https://www.wsc.edu/","","1433",70
"Wayne State University (Michigan)","NCAA D2","","MI","https://www.wayne.edu","","757",70
"West Chester University of Pennsylvania","NCAA D2","","PA","https://www.wcupa.edu/","","765",70
"West Liberty University","NCAA D2","","WV","https://www.westliberty.edu","","1438",70
"West Texas A&M University","NCAA D2","","TX","https://www.wtamu.edu","","767",70
"West Virginia State University","NCAA D2","","WV","https://www.wvstateu.edu","","1439",70
"West Virginia Wesleyan College","NCAA D2","","WV","https://wvwc.edu","","9630",70
"Western Colorado University","NCAA D2","","CO","https://www.western.edu","","2759",70
"Western New Mexico University","NCAA D2","","NM","https://www.wnmu.edu","","1445",70
"Western Oregon University","NCAA D2","","OR","https://www.wou.edu","","1446",70
"Western Washington University","NCAA D2","","WA","https://www.wwu.edu/","","1448",70
"Westminster University (Utah)","NCAA D2","","UT","https://www.westminsteru.edu","","30209",70
"Westmont College","NCAA D2","","CA","https://westmont.edu","","30260",70
"Wheeling University","NCAA D2","","WV","https://wheeling.edu/","","12799",70
"William Jewell College","NCAA D2","","MO","https://www.jewell.edu","","30120",70
"Wilmington University (Delaware)","NCAA D2","","DE","https://www.wilmu.edu/index.aspx","","1460",70
"Wingate University","NCAA D2","","NC","https://wingate.edu","","1462",70
"Winona State University","NCAA D2","","MN","https://www.winona.edu/","","790",70
"Winston-Salem State University","NCAA D2","","NC","https://www.wssu.edu","","791",70
"Young Harris College","NCAA D2","","GA","https://www.yhc.edu","","30154",70
"Allegheny Mountain Collegiate Conference","NCAA D3","","PA","https://www.amccsports.org","","30022",70
"America East Conference","NCAA D3","","MA","https://www.americaeast.com","","845",70
"American Conference","NCAA D3","","TX","https://www.TheAmerican.org","","823",70
"American Rivers Conference","NCAA D3","","IA","https://www.rollrivers.com/","","864",70
"American Southwest Conference","NCAA D3","","TX","https://www.ASCsports.org","","14825",70
"Atlantic 10 Conference","NCAA D3","","DC","https://www.atlantic10.com","","820",70
"Atlantic Coast Conference","NCAA D3","","NC","https://www.theacc.com","","821",70
"Atlantic East Conference","NCAA D3","","NJ","https:////atlanticeast.com","","30233",70
"Atlantic Hockey America (Men's)","NCAA D3","","MA","https://atlantichockeyamerica.com/sports/mhockey","","30059",70
"Atlantic Hockey America (Women's)","NCAA D3","","MA","https://atlantichockeyamerica.com","","30014",70
"Atlantic Sun Conference","NCAA D3","","FL","https://www.ASUNsports.org","","920",70
"Big 12 Conference","NCAA D3","","TX","https://big12sports.com","","25354",70
"Big East Conference","NCAA D3","","NY","https://www.bigeast.com","","30184",70
"Big Sky Conference","NCAA D3","","UT","https://www.bigskyconf.com","","825",70
"Big South Conference","NCAA D3","","NC","https://www.bigsouthsports.com","","826",70
"Big Ten Conference","NCAA D3","","IL","https://bigten.org","","827",70
"Big West Conference","NCAA D3","","CA","https://www.BigWest.org","","904",70
"California Collegiate Athletic Association","NCAA D3","","CA","https://www.goccaa.org","","828",70
"Centennial Conference","NCAA D3","","PA","https://www.centennial.org","","9683",70
"Central Atlantic Collegiate Conference","NCAA D3","","CT","https://www.caccathletics.org","","28752",70
"Central Collegiate Hockey Assn","NCAA D3","","MN","https://ccha.com","","831",70
"Central Intercollegiate Athletic Association","NCAA D3","","NC","https://theciaa.com","","832",70
"City University of New York Athletic Conference","NCAA D3","","NY","https://www.cunyathletics.com","","834",70
"Coast-To-Coast Athletic Conference","NCAA D3","","FL","https://www.c2csports.com","","15810",70
"Coastal Athletic Association","NCAA D3","","VA","https://www.CAASports.com","","837",70
"Coastal Lacrosse Conference","NCAA D3","","FL","https://coastallaxconference.com/index.aspx","","30256",70
"College Conference of Illinois & Wisconsin","NCAA D3","","IL","https://www.cciw.org","","836",70
"Collegiate Conference of the South","NCAA D3","","MS","https://collegiateconferenceofthesouth.com","","30251",70
"Collegiate Field Hockey Conference","NCAA D3","","GA","https://saa-sports.com/sports/fhockey","","30269",70
"Collegiate Water Polo Association","NCAA D3","","PA","https://www.collegiatewaterpolo.org","","1470",70
"Conference Carolinas","NCAA D3","","SC","https://www.conferencecarolinas.com","","4423",70
"Conference of New England","NCAA D3","","MA","https://www.cnesports.org","","839",70
"Conference USA","NCAA D3","","TX","https://conferenceusa.com","","24312",70
"Continental Volleyball Conference","NCAA D3","","VA","https://www.thecvc.org/landing/index","","30159",70
"East Coast Conference","NCAA D3","","NJ","https://www.eccsports.org","","11265",70
"Eastern College Athletic Conference","NCAA D3","","CT","https://www.ecacsports.com","","847",70
"Eastern Intercollegiate Volleyball Association","NCAA D3","","IN","https://www.eivavolleyball.com","","21520",70
"Eastern Intercollegiate Wrestling Association","NCAA D3","","PA","https://www.eiwawrestling.org","","850",70
"ECAC Hockey","NCAA D3","","CT","https://www.ecachockey.com","","30068",70
"Empire 8","NCAA D3","","NY","https://www.empire8.com","","863",70
"Golden Coast Conference","NCAA D3","","AZ","https://www.gccwaterpolo.com","","30186",70
"Great American Conference","NCAA D3","","AR","https://www.greatamericanconference.com","","30144",70
"Great Lakes Intercollegiate Athletic Conference","NCAA D3","","MI","https://www.gliac.org","","854",70
"Great Lakes Valley Conference","NCAA D3","","IN","https://www.glvcsports.com","","855",70
"Great Midwest Athletic Conference","NCAA D3","","IN","https://greatmidwestsports.com","","30182",70
"Great Northeast Athletic Conference","NCAA D3","","MA","https://www.thegnac.com/","","23257",70
"Great Northwest Athletic Conference","NCAA D3","","OR","https://www.gnacsports.com","","30012",70
"Gulf South Conference","NCAA D3","","AL","https://www.gscsports.org","","858",70
"Heartland Collegiate Athletic Conference","NCAA D3","","IN","https://www.heartlandconf.org/","","9174",70
"Heartland Collegiate Men's Lacrosse Conference","NCAA D3","","IN","https://heartlandconf.org/sports/mlax/index","","30204",70
"Heartland Collegiate Women's Lacrosse Conference","NCAA D3","","IN","https://heartlandconf.org/sports/wlax/index","","30203",70
"Hockey East Association","NCAA D3","","MA","https://www.hockeyeastonline.com","","862",70
"Horizon League","NCAA D3","","IN","https://www.horizonleague.org","","881",70
"Landmark Conference","NCAA D3","","MA","https://landmarkconference.org","","30101",70
"Liberty League","NCAA D3","","NY","https://www.libertyleagueathletics.com","","24197",70
"Little East Conference","NCAA D3","","RI","https://www.littleeast.com","","867",70
"Lone Star Conference","NCAA D3","","TX","https://www.lonestarconference.org","","868",70
"Massachusetts State Collegiate Athletic Conference","NCAA D3","","MA","https://www.mascac.com","","870",70
"Metro Atlantic Athletic Conference","NCAA D3","","NJ","https://www.maacsports.com","","871",70
"Michigan Intercollegiate Athletic Association","NCAA D3","","MI","https://www.miaa.org/","","873",70
"Mid-America Intercollegiate Athletics Association","NCAA D3","","MO","https://www.themiaa.com","","883",70
"Mid-American Conference","NCAA D3","","OH","https://www.getsomemaction.com","","875",70
"Mid-Atlantic Rowing Conference","NCAA D3","","PA","https://www.marcrowing.com","","30131",70
"Mid-Eastern Athletic Conf.","NCAA D3","","VA","https://www.meacsports.com","","876",70
"Middle Atlantic Conference Commonwealth","NCAA D3","","PA","https://www.gomacsports.com","","28744",70
"Middle Atlantic Conference Freedom","NCAA D3","","PA","https://www.gomacsports.com","","28745",70
"Middle Atlantic Conferences","NCAA D3","","PA","https://www.gomacsports.com","","877",70
"Midwest Collegiate Volleyball League","NCAA D3","","FL","https://www.mcvl.org","","30205",70
"Midwest Conference","NCAA D3","","IA","https://www.midwestconference.org","","23119",70
"Midwestern Intercollegiate Volleyball Association","NCAA D3","","IL","https://www.mivavolleyball.com","","21202",70
"Minnesota Intercollegiate Athletic Conference","NCAA D3","","MN","https://www.miacathletics.com","","882",70
"Missouri Valley Conference","NCAA D3","","MO","https://www.mvc-sports.com/","","884",70
"Missouri Valley Football Conference","NCAA D3","","MO","https://www.valley-football.org","","853",70
"Mountain East Conference","NCAA D3","","WV","https://www.mountaineast.org","","30183",70
"Mountain Pacific Sports Federation","NCAA D3","","CA","https://www.mpsports.org","","19762",70
"Mountain West Conference","NCAA D3","","CO","https://www.TheMW.com","","5486",70
"National Collegiate Hockey Conference","NCAA D3","","CO","https://www.nchchockey.com","","30187",70
"New England Small College Athletic Conference","NCAA D3","","MA","https://www.nescac.com/","","12817",70
"New England Volleyball Conference","NCAA D3","","RI","https://www.nevcvolleyball.com","","30261",70
"New England Women's and Men's Athletic Conference","NCAA D3","","MA","https://www.newmacsports.com","","890",70
"New England Womens Hockey Alliance","NCAA D3","","MA","https://www.newhaonline.com/landing/index","","30237",70
"New England Wrestling Assn","NCAA D3","","RI","https://www.rwuhawks.com","","886",70
"New Jersey Athletic Conference","NCAA D3","","NJ","https://www.njacsports.com","","891",70
"North Atlantic Conference","NCAA D3","","ME","https://www.nacathletics.com/","","30026",70
"North Coast Athletic Conference","NCAA D3","","OH","https://www.northcoast.org","","897",70
"Northeast Conference","NCAA D3","","NJ","https://www.northeastconference.org","","846",70
"Northeast Water Polo Conference","NCAA D3","","PA","https://www.collegiatewaterpolo.org","","30218",70
"Northeast Women's Golf Conference","NCAA D3","","NY","https://www.nwgolfconference.com","","30235",70
"Northeast-10 Conference","NCAA D3","","MA","https://www.northeast10.org/","","899",70
"Northern Athletics Collegiate Conference","NCAA D3","","WI","https://www.naccsports.org","","30097",70
"Northern Collegiate Hockey Association","NCAA D3","","WI","https://www.nchahockey.org","","30117",70
"Northern Sun Intercollegiate Conference","NCAA D3","","MN","https://www.northernsun.org","","12853",70
"Northwest Conference","NCAA D3","","OR","https://www.nwcsports.com","","25300",70
"Ohio Athletic Conference","NCAA D3","","OH","https://www.oac.org/","","901",70
"Ohio Valley Conference","NCAA D3","","TN","https://www.ovcsports.com","","902",70
"Old Dominion Athletic Conf.","NCAA D3","","VA","https://www.odaconline.com","","903",70
"Pac-12 Conference","NCAA D3","","CA","https://www.pac-12.com","","905",70
"Pacific West Conference","NCAA D3","","CA","https://www.thepacwest.com","","19591",70
"Patriot League","NCAA D3","","PA","https://www.patriotleague.org","","838",70
"Peach Belt Conference","NCAA D3","","GA","https://www.peachbeltconference.org","","12923",70
"Pennsylvania State Athletic Conference","NCAA D3","","PA","https://www.psacsports.org/","","906",70
"Pioneer Football League","NCAA D3","","MO","https://www.pioneer-football.org/","","21451",70
"Presidents' Athletic Conference","NCAA D3","","PA","https://www.pacathletics.org/","","907",70
"Rocky Mountain Athletic Conference","NCAA D3","","CO","https://www.rmacsports.org","","13128",70
"Skyline Conference","NCAA D3","","NY","https://www.skylineconference.org/","","13054",70
"South Atlantic Conference","NCAA D3","","SC","https://www.thesac.com","","12850",70
"Southeastern Conference","NCAA D3","","AL","https://www.secsports.com","","911",70
"Southern Athletic Association","NCAA D3","","GA","https://www.saa-sports.com","","30169",70
"Southern California Intercollegiate Athletic Conf.","NCAA D3","","CA","https://www.thesciac.org/","","910",70
"Southern Collegiate Athletic Conference","NCAA D3","","GA","https://www.scacsports.com","","835",70
"Southern Conference","NCAA D3","","SC","https://www.soconsports.com/","","912",70
"Southern Intercol. Ath. Conf.","NCAA D3","","GA","https://www.thesiac.com","","913",70
"Southland Conference","NCAA D3","","TX","https://www.southland.org","","914",70
"Southwestern Athletic Conf.","NCAA D3","","AL","https://www.swac.org","","916",70
"St. Louis Intercollegiate Athletic Conference","NCAA D3","","IL","https://www.sliac.org/","","12974",70
"State University of New York Athletic Conference","NCAA D3","","NY","https://www.sunyacsports.com/","","917",70
"Sun Belt Conference","NCAA D3","","LA","https://www.sunbeltsports.org/","","818",70
"Sunshine State Conference","NCAA D3","","FL","https://www.sunshinestateconference.com","","919",70
"The Ivy League","NCAA D3","","NJ","https://www.ivyleague.com/","","865",70
"The Summit League","NCAA D3","","SD","https://www.thesummitleague.org","","819",70
"United Collegiate Hockey Conference (Men)","NCAA D3","","NY","https://TheUCHC.com","","30227",70
"United Collegiate Hockey Conference (Women)","NCAA D3","","NY","https://TheUCHC.com","","30228",70
"United East Conference","NCAA D3","","NY","https://gounitedeast.com","","30071",70
"United Volleyball Conference","NCAA D3","","NY","https://www.TheUVC.org","","30133",70
"University Athletic Association","NCAA D3","","OH","https://www.uaasports.info","","1471",70
"Upper Midwest Athletic Conference","NCAA D3","","MN","https://umacathletics.com","","30115",70
"USA South Athletic Conference","NCAA D3","","GA","https://www.usasouth.net/","","842",70
"West Coast Conference","NCAA D3","","CA","https://wccsports.com","","922",70
"Western Athletic Conference","NCAA D3","","TX","https://www.wacsports.com/","","923",70
"Western Collegiate Hockey Assn","NCAA D3","","MN","https://wcha.com","","924",70
"Western Water Polo Association Men","NCAA D3","","CA","https://www.thewwpa.com","","2846",70
"Western Water Polo Association Women","NCAA D3","","CA","https://www.thewwpa.com","","30157",70
"Wisconsin Intercollegiate Athletic Conference","NCAA D3","","WI","https://www.wiacsports.com","","1473",70
"Women's Northern Collegiate Hockey Association","NCAA D3","","WI","https://www.nchahockey.org","","30158",70
"Colonial Women's Golf Conference ","NCAA D3","","FL","","","30271",50